{"type":"FeatureCollection","name":"Frontiera — controllo territoriale, Fase 3","metadata":{"dataCartografica":"2024-08-14","crs":"EPSG:4326","criterio":"controllo territoriale consolidato, non semplice presenza o massima avanzata rivendicata","procedura":"Ridigitalizzazione/dissoluzione GIS; semplificazione topologica; verifica visuale ISW e quantitativa VIINA.","creatoIl":"2026-07-20","revisionatoIl":"2026-07-20","fonti":[{"id":"frontiera-ridigitalizzazione-deepstate-isw","titolo":"Ridigitalizzazione Frontiera da DeepStateMap, verificata su mappe ISW","url":"https://deepstatemap.live/en","ruolo":"base visuale dei perimetri, ridigitalizzata e semplificata; dati API sorgente non ridistribuiti"},{"id":"viina-2","titolo":"VIINA 2.0 — Territorial Control Data","autori":"Yuri M. Zhukov e Natalie Ayers","url":"https://github.com/zhukovyuri/VIINA","licenza":"ODbL 1.0","ruolo":"controllo indipendente di data e attribuzione presso i centri abitati"},{"id":"isw-kursk-2024-08-14","titolo":"Ukrainian Incursion into Kursk Oblast as of August 14, 2024, 3:00 PM ET","autore":"Institute for the Study of War e AEI Critical Threats Project","url":"https://understandingwar.org/map/ukrainian-incursion-into-kursk-oblast-as-of-august-14-2024-300-pm-et/","ruolo":"verifica delle aree consolidate e separazione dalle massime avanzate rivendicate"}],"note":"Il poligono Kursk è conservativo: esclude le sole presenze e le direttrici discontinue mostrate da ISW."},"features":[{"type":"Feature","id":"fase-3-controllo-russo-pre-2022","properties":{"id":"fase-3-controllo-russo-pre-2022","stato":"controllo-russo","data":"2024-08-14","origineControllo":"pre-2022","sourceId":"frontiera-ridigitalizzazione-deepstate-isw","note":"Crimea e porzioni del Donbas già controllate prima dell'invasione su vasta scala."},"geometry":{"type":"MultiPolygon","coordinates":[[[[32.478939,45.389163],[32.507445,45.381957],[32.513458,45.372038],[32.510377,45.360884],[32.489453,45.346136],[32.551846,45.332385],[32.569816,45.332888],[32.578538,45.327642],[32.65299,45.313322],[32.675688,45.320614],[32.685502,45.332102],[32.712159,45.341307],[32.735393,45.354972],[32.76522,45.363836],[32.84671,45.365264],[32.907019,45.359436],[32.966765,45.336694],[32.991848,45.322499],[33.035244,45.29016],[33.062776,45.27566],[33.107907,45.23151],[33.138912,45.216317],[33.148825,45.202143],[33.185236,45.183717],[33.201984,45.183225],[33.225292,45.174695],[33.257295,45.147804],[33.284289,45.148276],[33.300138,45.162027],[33.29792,45.165633],[33.305239,45.17277],[33.350015,45.173699],[33.380282,45.185909],[33.376436,45.191845],[33.391196,45.197375],[33.432652,45.184093],[33.509265,45.13445],[33.56149,45.081073],[33.58086,45.050881],[33.602595,44.997973],[33.604377,44.980471],[33.597652,44.97655],[33.610962,44.925721],[33.6052,44.866386],[33.594636,44.847578],[33.569694,44.838843],[33.55297,44.841655],[33.548513,44.834598],[33.549545,44.810828],[33.533513,44.792608],[33.540722,44.761758],[33.539777,44.744321],[33.547583,44.724445],[33.546363,44.677979],[33.535667,44.64599],[33.508271,44.631916],[33.494615,44.617766],[33.450155,44.615946],[33.373305,44.584056],[33.403694,44.553239],[33.46013,44.522891],[33.486243,44.494968],[33.506071,44.500846],[33.554048,44.486877],[33.601948,44.491739],[33.627013,44.479579],[33.63834,44.458687],[33.64553,44.421924],[33.673869,44.412807],[33.702892,44.416926],[33.733092,44.383332],[33.759005,44.386932],[33.778737,44.381452],[33.846027,44.401142],[33.882423,44.400268],[33.939412,44.389646],[33.963406,44.38885],[34.034986,44.403674],[34.057232,44.416521],[34.128936,44.427878],[34.171984,44.491011],[34.260362,44.507556],[34.308946,44.552088],[34.334843,44.545507],[34.349035,44.546767],[34.349805,44.57185],[34.354354,44.585681],[34.375816,44.591703],[34.377892,44.612309],[34.389678,44.628884],[34.403924,44.639751],[34.412176,44.658807],[34.432149,44.682765],[34.474964,44.715071],[34.625628,44.773956],[34.677858,44.787856],[34.728811,44.807825],[34.747987,44.807058],[34.763731,44.815057],[34.912095,44.81577],[34.920318,44.82153],[34.920988,44.828751],[34.967823,44.838027],[34.988701,44.828075],[35.0007,44.83203],[35.029503,44.828249],[35.047274,44.814837],[35.043666,44.799459],[35.081062,44.790612],[35.09398,44.801375],[35.111022,44.80702],[35.118455,44.81723],[35.133101,44.822812],[35.130569,44.829311],[35.139391,44.861252],[35.169311,44.900247],[35.190556,44.907887],[35.216612,44.909005],[35.243653,44.916792],[35.25652,44.938423],[35.249825,44.952823],[35.271282,44.967596],[35.283641,44.96616],[35.294987,44.959711],[35.301518,44.965776],[35.322807,44.966441],[35.322466,44.95921],[35.344315,44.964188],[35.351803,44.954952],[35.382973,44.943891],[35.394038,44.954933],[35.356103,44.97733],[35.358416,44.985552],[35.366739,44.992559],[35.428693,45.012912],[35.412652,45.025778],[35.385966,45.035246],[35.389399,45.049444],[35.414638,45.07541],[35.451063,45.097366],[35.541346,45.125861],[35.58496,45.129359],[35.62977,45.122303],[35.692135,45.104626],[35.748793,45.081465],[35.777878,45.066304],[35.804886,45.045558],[35.814483,45.033306],[35.810165,45.021418],[35.82978,45.014076],[35.834113,45.0091],[35.828278,45.004552],[35.842096,44.998366],[35.870587,45.004186],[35.907658,45.018079],[35.925851,45.019111],[35.954083,45.011219],[35.984215,45.022859],[35.994952,45.03511],[36.012561,45.044932],[36.035405,45.049216],[36.07129,45.048252],[36.201045,45.033023],[36.225684,45.026816],[36.24793,45.04068],[36.249153,45.047687],[36.282137,45.05499],[36.372884,45.057475],[36.440096,45.083327],[36.456018,45.095623],[36.454606,45.105555],[36.43318,45.117691],[36.425628,45.128893],[36.417779,45.164294],[36.407778,45.172889],[36.403912,45.214162],[36.423049,45.23723],[36.423707,45.245262],[36.435783,45.258066],[36.43962,45.271622],[36.436333,45.276239],[36.426012,45.27864],[36.421663,45.286584],[36.435179,45.295073],[36.484438,45.305478],[36.499502,45.318675],[36.47329,45.330744],[36.472041,45.341233],[36.477812,45.349132],[36.518286,45.351539],[36.535225,45.349918],[36.534981,45.345637],[36.54435,45.344735],[36.596554,45.345031],[36.60599,45.347733],[36.612025,45.355938],[36.630569,45.360521],[36.633217,45.362811],[36.630106,45.373786],[36.648733,45.38292],[36.611273,45.407542],[36.607593,45.412573],[36.61553,45.422271],[36.598276,45.438662],[36.57528,45.442252],[36.565672,45.436625],[36.56594,45.428443],[36.554467,45.424368],[36.532672,45.42719],[36.495456,45.450514],[36.470548,45.458514],[36.461093,45.456435],[36.447174,45.460135],[36.432474,45.447875],[36.415458,45.446825],[36.376602,45.463689],[36.372894,45.47138],[36.357563,45.471617],[36.344848,45.484307],[36.33933,45.482513],[36.336302,45.474221],[36.322868,45.471297],[36.293683,45.483861],[36.265345,45.478566],[36.17039,45.472361],[36.12387,45.463618],[36.068785,45.445463],[36.068942,45.404374],[36.04285,45.384009],[35.99701,45.371491],[35.941221,45.380044],[35.886842,45.407774],[35.846507,45.446506],[35.87606,45.463856],[35.867831,45.473251],[35.841775,45.474473],[35.823649,45.46632],[35.817747,45.458869],[35.818368,45.451418],[35.826475,45.440129],[35.748929,45.396331],[35.745726,45.39066],[35.748889,45.384633],[35.760985,45.381258],[35.753728,45.366548],[35.724851,45.351594],[35.71557,45.338458],[35.632903,45.324584],[35.525825,45.291193],[35.498759,45.306176],[35.467835,45.307544],[35.382064,45.352514],[35.311256,45.411424],[35.201458,45.523343],[35.109867,45.599025],[35.050056,45.667202],[34.977053,45.765285],[34.958219,45.760037],[34.800881,45.804735],[34.796134,45.892053],[34.782879,45.904975],[34.752716,45.910231],[34.700883,45.959179],[34.651415,45.973908],[34.556042,45.988691],[34.478552,45.946947],[34.436726,45.968164],[34.382464,46.034692],[34.227754,46.060816],[34.160772,46.08043],[34.122582,46.108122],[34.038334,46.116935],[33.82395,46.187069],[33.740532,46.185128],[33.6897,46.204334],[33.60668,46.146878],[33.612528,46.138238],[33.616561,46.11536],[33.633038,46.097381],[33.637282,46.081351],[33.623699,46.071722],[33.611338,46.054819],[33.629384,45.977458],[33.627758,45.958848],[33.616479,45.949068],[33.617606,45.944243],[33.634992,45.941326],[33.647501,45.945166],[33.640135,45.949356],[33.659761,45.954586],[33.692314,45.95526],[33.744939,45.95033],[33.747278,45.946685],[33.751076,45.9488],[33.757987,45.934494],[33.749506,45.928276],[33.730928,45.930188],[33.701995,45.911004],[33.691971,45.913471],[33.680094,45.90854],[33.675115,45.898868],[33.684191,45.850098],[33.661598,45.86426],[33.662233,45.871524],[33.642234,45.876325],[33.616272,45.892143],[33.593725,45.885292],[33.581653,45.871206],[33.568716,45.874008],[33.548213,45.843531],[33.542129,45.840258],[33.527171,45.849723],[33.507622,45.841072],[33.50089,45.848355],[33.520062,45.857708],[33.544102,45.880335],[33.540593,45.884913],[33.517951,45.867777],[33.432207,45.838576],[33.373494,45.797187],[33.32241,45.775037],[33.23866,45.752804],[33.21192,45.757728],[33.182114,45.773902],[33.172486,45.786603],[33.185831,45.807952],[33.182338,45.80993],[33.175838,45.805742],[33.165737,45.78827],[33.159184,45.749182],[33.152919,45.733355],[33.1378,45.719814],[33.127908,45.719842],[33.114638,45.712775],[33.095704,45.715503],[33.0691,45.706833],[33.017154,45.687009],[33.006337,45.679383],[32.999393,45.681147],[32.908691,45.640338],[32.820181,45.586841],[32.821299,45.58301],[32.841008,45.582406],[32.843141,45.570597],[32.833962,45.560234],[32.825974,45.55733],[32.793178,45.56389],[32.772105,45.557869],[32.736877,45.543007],[32.72322,45.533026],[32.59058,45.48558],[32.538208,45.454884],[32.524271,45.438872],[32.500388,45.424663],[32.48807,45.407956],[32.479703,45.404263],[32.478939,45.389163]]],[[[36.50714,45.295558],[36.533319,45.279798],[36.549112,45.261314],[36.578294,45.249048],[36.547052,45.279677],[36.519242,45.293988],[36.50714,45.295558]]],[[[37.521854,47.94582],[37.542839,47.932477],[37.5350299,47.918015],[37.644034,47.886626],[37.634262,47.838423],[37.634549,47.802538],[37.623169,47.77311],[37.637589,47.751994],[37.67268,47.724717],[37.764495,47.684702],[37.803977,47.660196],[37.8312754,47.6567292],[37.8523854,47.641694],[37.8458595,47.6237619],[37.8159936,47.5852213],[37.819427,47.546303],[37.892555,47.469773],[37.878478,47.441684],[37.863715,47.426588],[37.855819,47.403124],[37.856849,47.392898],[37.850326,47.384298],[37.83831,47.378022],[37.841643,47.369022],[37.851599,47.365534],[37.837623,47.352442],[37.848609,47.350116],[37.859152,47.354371],[37.861212,47.347858],[37.856849,47.343603],[37.829283,47.342507],[37.824577,47.321498],[37.834876,47.30823],[37.827666,47.302643],[37.833846,47.285412],[37.833503,47.249301],[37.8005435,47.1732715],[37.818054,47.119099],[37.829283,47.112742],[37.83831,47.099704],[37.895473,47.110921],[37.983964,47.083576],[37.99023,47.091466],[37.975882,47.095683],[37.993063,47.099003],[38.032545,47.08907],[38.040012,47.091875],[38.054332,47.108302],[38.062671,47.110804],[38.08885,47.105956],[38.122869,47.080622],[38.132826,47.06402],[38.131796,47.053729],[38.106046,47.047179],[38.080408,47.026545],[38.084988,47.020418],[38.163265,47.065455],[38.186556,47.093712],[38.230118,47.119406],[38.229247,47.127085],[38.236312,47.139527],[38.234781,47.202589],[38.24279,47.217117],[38.233869,47.225801],[38.234334,47.230986],[38.253541,47.233616],[38.260502,47.238316],[38.288189,47.23856],[38.288043,47.2565],[38.324491,47.256821],[38.333735,47.268938],[38.323394,47.281132],[38.333354,47.292132],[38.333288,47.296975],[38.327091,47.299009],[38.334511,47.301408],[38.336304,47.306408],[38.220978,47.30538],[38.221472,47.327345],[38.227214,47.32971],[38.222079,47.332853],[38.230493,47.338902],[38.230693,47.343169],[38.246788,47.351445],[38.250461,47.357713],[38.245559,47.363193],[38.258732,47.373353],[38.286492,47.37356],[38.286416,47.391477],[38.302085,47.39287],[38.302022,47.475121],[38.289402,47.476754],[38.295072,47.508064],[38.284908,47.508376],[38.284804,47.544465],[38.305114,47.544851],[38.31115,47.553619],[38.31097,47.576028],[38.350737,47.576206],[38.35012,47.616689],[38.456688,47.617004],[38.456275,47.644253],[38.620087,47.64487],[38.629589,47.653336],[38.629274,47.669278],[38.665887,47.669418],[38.665616,47.697176],[38.6592,47.700057],[38.729124,47.698807],[38.730305,47.680361],[38.773164,47.685764],[38.770869,47.720629],[38.788943,47.737015],[38.798157,47.77844],[38.788677,47.815974],[38.835102,47.816059],[38.8393994,47.8642544],[39.082778,47.869927],[39.082891,47.851604],[39.109389,47.851752],[39.109535,47.842747],[39.149682,47.842582],[39.236213,47.853953],[39.241734,47.867014],[39.39045,47.866185],[39.412529,47.830898],[39.437354,47.839834],[39.44625,47.850644],[39.478474,47.859474],[39.520308,47.825141],[39.534491,47.83253],[39.542168,47.824981],[39.565587,47.836556],[39.73791,47.827729],[39.763184,47.846537],[39.762505,47.870145],[39.794941,47.866833],[39.793904,47.915897],[39.806594,47.933666],[39.805888,47.950562],[39.827391,47.950834],[39.815408,47.970866],[39.823031,47.98354],[39.816717,47.984542],[39.817916,47.994778],[39.813736,47.998502],[39.81672,48.001463],[39.795218,48.010703],[39.785081,48.023125],[39.779662,48.039336],[39.877208,48.041378],[39.885886,48.047866],[39.832202,48.0665],[39.868584,48.079444],[39.879951,48.115164],[39.910275,48.138416],[39.909184,48.16933],[39.913886,48.178015],[39.940934,48.18081],[39.942194,48.230744],[40.00754,48.223312],[40.003076,48.239476],[40.01951,48.252508],[40.018989,48.25706],[40.016777,48.269458],[40.008963,48.272654],[39.999745,48.28929],[39.990815,48.317082],[39.972492,48.312971],[39.971265,48.307302],[39.963063,48.302596],[39.971011,48.302796],[39.970224,48.298747],[39.958283,48.29805],[39.95666,48.303185],[39.951971,48.303551],[39.948411,48.294295],[39.937703,48.292225],[39.936215,48.285058],[39.930156,48.282764],[39.934695,48.279066],[39.924907,48.271485],[39.914829,48.269678],[39.90822,48.277008],[39.912695,48.288202],[39.910188,48.292982],[39.886916,48.304089],[39.887199,48.308777],[39.841068,48.310051],[39.840394,48.329117],[39.845593,48.332774],[39.877934,48.334073],[39.918581,48.341692],[39.918603,48.347207],[39.943644,48.34812],[39.947507,48.35523],[39.94253,48.354963],[39.944422,48.357166],[39.934751,48.372274],[39.943278,48.383791],[39.941535,48.387072],[39.926845,48.375075],[39.92122,48.375928],[39.914558,48.386827],[39.905962,48.390316],[39.918644,48.397611],[39.906312,48.403562],[39.912763,48.41558],[39.910297,48.421956],[39.895926,48.429242],[39.888817,48.441993],[39.896766,48.44422],[39.897326,48.448112],[39.857752,48.463363],[39.846338,48.473712],[39.846469,48.499306],[39.84871,48.50284],[39.861877,48.501924],[39.866756,48.508883],[39.854533,48.552999],[39.85763,48.561413],[39.846829,48.572934],[39.821685,48.578332],[39.825051,48.586152],[39.80861,48.583972],[39.789985,48.593369],[39.773425,48.592326],[39.770368,48.587994],[39.751295,48.58209],[39.751054,48.588836],[39.746721,48.590673],[39.721237,48.584834],[39.6713252,48.5892403],[39.6334311,48.5812628],[39.6236025,48.5870259],[39.6110289,48.5740514],[39.6010726,48.5749594],[39.5968664,48.5795022],[39.6058783,48.5855209],[39.600613,48.5928753],[39.5913857,48.5922505],[39.5743396,48.5817384],[39.5640858,48.5845992],[39.5694136,48.5911155],[39.5635639,48.5990889],[39.549059,48.595854],[39.549314,48.585973],[39.5306906,48.5856913],[39.5292488,48.5912185],[39.5350124,48.5928382],[39.5341908,48.5967686],[39.5245243,48.6026385],[39.5298325,48.6093625],[39.5129236,48.6221295],[39.5175713,48.6266987],[39.5165791,48.6337256],[39.4672186,48.6285546],[39.4654267,48.6335035],[39.4686795,48.6376897],[39.454215,48.639786],[39.449575,48.644557],[39.452373,48.65471],[39.410694,48.657656],[39.408033,48.65981],[39.413526,48.66684],[39.411724,48.670524],[39.390524,48.678799],[39.389599,48.684749],[39.377986,48.686237],[39.355953,48.697214],[39.346855,48.712224],[39.374183,48.718652],[39.353722,48.726891],[39.358871,48.736175],[39.349266,48.742496],[39.343138,48.757361],[39.353893,48.76549],[39.351063,48.768547],[39.33167,48.766602],[39.326603,48.768309],[39.326256,48.775559],[39.311844,48.774069],[39.292617,48.760605],[39.286434,48.748901],[39.272383,48.753887],[39.268663,48.741949],[39.256311,48.74227],[39.259229,48.733835],[39.24978,48.712564],[39.239588,48.709125],[39.232364,48.711412],[39.207173,48.6983],[39.200371,48.699999],[39.196508,48.706513],[39.174249,48.680329],[39.148672,48.675285],[39.141898,48.66665],[39.141984,48.660868],[39.123187,48.660018],[39.103618,48.649869],[39.075894,48.651626],[39.042678,48.646466],[39.012372,48.658336],[39.009633,48.662626],[39.025426,48.661974],[39.026284,48.667274],[39.014354,48.683427],[39.015548,48.694891],[39.001815,48.698007],[38.998986,48.711196],[38.984305,48.711828],[38.999333,48.719624],[38.978812,48.744892],[38.961131,48.746137],[38.961045,48.736515],[38.943707,48.733854],[38.932464,48.736798],[38.936959,48.747117],[38.918028,48.742911],[38.90474,48.750608],[38.863879,48.75138],[38.847148,48.742911],[38.830067,48.717038],[38.808438,48.713414],[38.767067,48.71432],[38.691716,48.729363],[38.674549,48.729363],[38.678412,48.723701],[38.583218,48.71987],[38.577732,48.696742],[38.572231,48.689056],[38.559446,48.686695],[38.548978,48.675294],[38.527284,48.674642],[38.516148,48.670562],[38.515247,48.666367],[38.431476,48.650492],[38.4263261,48.6386961],[38.4362747,48.6292431],[38.4412529,48.6172714],[38.438793,48.6110275],[38.40607,48.60193],[38.402637,48.59194],[38.402637,48.547867],[38.414303,48.520605],[38.405377,48.473366],[38.389247,48.432278],[38.390964,48.415874],[38.321754,48.371053],[38.273689,48.359192],[38.2385206,48.3867172],[38.1890602,48.4165331],[38.163094,48.402117],[38.148548,48.414482],[38.117477,48.420805],[38.113706,48.408013],[38.042123,48.409086],[38.004802,48.393954],[37.978623,48.391275],[37.974959,48.381115],[37.9500832,48.3734333],[37.942023,48.3574628],[37.9292962,48.3594898],[37.9185517,48.3465274],[37.9054956,48.3404377],[37.9006815,48.3232554],[37.9011467,48.2908822],[37.8943398,48.286666],[37.895347,48.268546],[37.89157,48.255061],[37.896571,48.215429],[37.88333,48.199712],[37.856208,48.192846],[37.828593,48.17515],[37.8168038,48.1322916],[37.789283,48.100177],[37.756436,48.08667],[37.7430873,48.0868254],[37.7266508,48.0795824],[37.7257935,48.0733245],[37.693049,48.069307],[37.687749,48.061894],[37.694294,48.056545],[37.691199,48.053406],[37.68785,48.054754],[37.64781,48.028944],[37.616482,48.018095],[37.575455,48.013961],[37.573394,48.006899],[37.556143,48.009855],[37.549621,47.997364],[37.558546,47.986451],[37.5412006,47.9745867],[37.525158,47.957202],[37.521854,47.94582]]]]}},{"type":"Feature","id":"fase-3-controllo-russo-post-2022","properties":{"id":"fase-3-controllo-russo-post-2022","stato":"controllo-russo","data":"2024-08-14","origineControllo":"post-2022","sourceId":"frontiera-ridigitalizzazione-deepstate-isw","note":"Territorio sotto controllo russo acquisito dal 24 febbraio 2022."},"geometry":{"type":"MultiPolygon","coordinates":[[[[31.5112956,46.5766899],[31.5216196,46.5616069],[31.5469496,46.5387319],[31.6142447,46.5019459],[31.6567497,46.4689159],[31.6942997,46.4403369],[31.7249455,46.4144723],[31.7452095,46.3864323],[31.7738378,46.3711594],[31.7768872,46.3741195],[31.7376658,46.4262219],[31.7202637,46.4333549],[31.7069757,46.4454549],[31.6971237,46.4472639],[31.6969167,46.4575119],[31.7042637,46.4665769],[31.7164527,46.4786779],[31.7420388,46.4853379],[31.7709038,46.4845789],[31.7970178,46.4781389],[31.8921178,46.4568289],[31.9528229,46.4374829],[31.9748439,46.4392309],[32.0022429,46.4534579],[32.0290379,46.4375689],[32.0355679,46.4165919],[32.0090489,46.3641429],[31.9697689,46.3483889],[31.8682748,46.3343839],[31.8234478,46.3371309],[31.7725378,46.3271729],[31.7455888,46.3060499],[31.7477378,46.2981679],[31.7580908,46.2948689],[31.7680158,46.2965449],[31.7745058,46.2939519],[31.7712118,46.2888669],[31.7755438,46.2854899],[31.7751098,46.2822939],[31.7821278,46.2768669],[31.7832868,46.2725389],[31.7771958,46.2681569],[31.7796018,46.2644959],[31.7844068,46.2651129],[31.7845138,46.2688919],[31.7917018,46.2739169],[31.8097238,46.2721229],[31.8143578,46.2694769],[31.8132408,46.2647729],[31.8183038,46.2643399],[31.8346938,46.2661669],[31.8331418,46.2698209],[31.8351908,46.2728569],[31.8476968,46.2679509],[31.8507378,46.2682829],[31.8612198,46.2721719],[31.8708308,46.2658029],[31.8740008,46.2652859],[31.8832878,46.2734449],[31.8950659,46.2807729],[31.9044879,46.2974679],[31.9368189,46.2921709],[31.9437419,46.2855879],[31.9555959,46.2659249],[31.9695109,46.2572369],[32.0285419,46.2456249],[32.0514159,46.2498139],[32.077751,46.2389489],[32.087826,46.2214899],[32.12115,46.2044209],[32.165963,46.1969219],[32.187022,46.1756949],[32.20613,46.1722089],[32.208103,46.1868279],[32.221809,46.1877389],[32.239877,46.1785439],[32.227939,46.1683759],[32.2383866,46.1498051],[32.2260411,46.1318861],[32.3892209,46.0945518],[32.5465374,46.0652942],[32.5748973,46.0637266],[32.6378808,46.0537028],[32.7396149,46.0336126],[32.9120662,46.0104008],[32.9680429,46.0125725],[33.0363766,46.0080341],[33.0700551,46.014197],[33.0496585,46.0277516],[33.0174514,46.0256746],[32.9728824,46.030736],[32.9414071,46.0460889],[32.936279,46.039686],[32.926517,46.031197],[32.9080363,46.0266225],[32.8785745,46.025916],[32.7952785,46.0303099],[32.7193638,46.039073],[32.6200553,46.0603997],[32.5521201,46.0682825],[32.5418471,46.0681868],[32.5396283,46.0734981],[32.5442762,46.0804766],[32.5961414,46.0958488],[32.6466589,46.107865],[32.6770504,46.0998169],[32.7037448,46.1062335],[32.7328476,46.1097869],[32.7584466,46.1190283],[32.8289775,46.111371],[32.8637174,46.1157227],[32.9132757,46.1067933],[33.0296046,46.1132428],[33.0314748,46.1497263],[33.062645,46.1555911],[33.1015746,46.1318733],[33.1404697,46.1276416],[33.1814552,46.1475617],[33.1953058,46.1701366],[33.2228929,46.1570383],[33.2080208,46.1270291],[33.2566584,46.1386509],[33.2840087,46.1250405],[33.3086112,46.1143165],[33.3029958,46.0935952],[33.2780393,46.0945251],[33.2885474,46.0749609],[33.3182342,46.0763028],[33.3183151,46.0991141],[33.3499462,46.093137],[33.3664607,46.0752498],[33.4075754,46.0409617],[33.4370872,46.0401646],[33.4604216,46.0460342],[33.4911413,46.0322404],[33.5101802,46.0284516],[33.4931423,46.0527188],[33.4966987,46.070314],[33.5151162,46.08243],[33.5616884,46.0740552],[33.5139842,46.1075148],[33.5453724,46.1233099],[33.5805716,46.1571784],[33.60668,46.146878],[33.6897,46.204334],[33.714554,46.196894],[33.740532,46.185128],[33.82395,46.187069],[34.038334,46.116935],[34.122582,46.108122],[34.160772,46.08043],[34.227754,46.060816],[34.382464,46.034692],[34.436726,45.968164],[34.478552,45.946947],[34.556042,45.988691],[34.651415,45.973908],[34.700883,45.959179],[34.752716,45.910231],[34.782879,45.904975],[34.796134,45.892053],[34.800881,45.804735],[34.958219,45.760037],[34.977053,45.765285],[34.8959634,45.89884],[34.8524734,46.009247],[34.8346404,46.115559],[34.8337824,46.200162],[34.9030034,46.236419],[35.0248135,46.256333],[35.0798625,46.276666],[35.1177696,46.314272],[35.1380016,46.348282],[35.1783566,46.362948],[35.1931726,46.370951],[35.2182731,46.4304054],[35.2117588,46.447041],[35.2464475,46.4464048],[35.2680364,46.4322011],[35.2549465,46.4049822],[35.2661022,46.355554],[35.2898036,46.356581],[35.3078947,46.348318],[35.3179197,46.337862],[35.3311927,46.3311579],[35.3174417,46.317067],[35.3000922,46.3144917],[35.2943022,46.3064241],[35.2989867,46.299007],[35.2532032,46.2487007],[35.2090226,46.190401],[35.1368332,46.1620333],[35.0293468,46.1450168],[35.0308253,46.1273641],[34.9912944,46.1045909],[34.978187,46.0766593],[35.0664193,46.0993871],[35.1336065,46.1195453],[35.1886302,46.1514651],[35.2658686,46.250892],[35.3602357,46.354693],[35.4578287,46.441261],[35.5657181,46.4754297],[35.6242655,46.5043364],[35.7239866,46.5868415],[35.8739383,46.6456624],[35.9936152,46.6660587],[36.1146898,46.6566385],[36.1898851,46.66706],[36.2290441,46.650535],[36.2598962,46.61865],[36.1908501,46.534705],[36.1665141,46.527707],[36.1550673,46.5279538],[36.1431422,46.5033058],[36.1717045,46.4981772],[36.2328002,46.5559024],[36.3322034,46.6770342],[36.414958,46.7260118],[36.5366359,46.7585761],[36.7110616,46.7814128],[36.7760999,46.7542565],[36.8108785,46.7303716],[36.8182917,46.7021299],[36.7876141,46.6641502],[36.7492259,46.6430472],[36.7503553,46.6311811],[36.7697679,46.6322195],[36.8049875,46.659181],[36.8380535,46.70579],[36.8685205,46.76572],[36.8974913,46.8109338],[37.0061259,46.8692952],[37.036174,46.8706509],[37.2381602,46.9510306],[37.2828449,46.937346],[37.3161731,46.9142709],[37.3240055,46.891819],[37.2978535,46.8727626],[37.2841756,46.8725455],[37.2855691,46.866901],[37.3089232,46.8701227],[37.3418924,46.8950477],[37.4780681,47.0314305],[37.5285478,47.0775291],[37.574156,47.0853587],[37.6204629,47.086602],[37.6273779,47.09413],[37.6758119,47.077916],[37.6840329,47.076706],[37.6858859,47.080525],[37.71388,47.079862],[37.774395,47.087579],[37.794085,47.083807],[37.821989,47.09092],[37.83831,47.099704],[37.829283,47.112742],[37.818054,47.119099],[37.8005435,47.1732715],[37.8111872,47.2012707],[37.833503,47.249301],[37.833846,47.285412],[37.827666,47.302643],[37.834876,47.30823],[37.831786,47.314981],[37.824577,47.321498],[37.827323,47.328479],[37.829283,47.342507],[37.844489,47.341974],[37.856849,47.343603],[37.861212,47.347858],[37.859152,47.354371],[37.848609,47.350116],[37.837623,47.352442],[37.841743,47.358489],[37.851599,47.365534],[37.841643,47.369022],[37.83831,47.378022],[37.850326,47.384298],[37.856849,47.392898],[37.855819,47.403124],[37.863715,47.426588],[37.878478,47.441684],[37.892555,47.469773],[37.819427,47.546303],[37.8159936,47.5852213],[37.8458595,47.6237619],[37.8523854,47.641694],[37.8312754,47.6567292],[37.803977,47.660196],[37.7755288,47.6754271],[37.764495,47.684702],[37.67268,47.724717],[37.637589,47.751994],[37.623169,47.77311],[37.634549,47.802538],[37.634262,47.838423],[37.644034,47.886626],[37.575907,47.907733],[37.5686,47.907768],[37.5350299,47.918015],[37.5394079,47.924265],[37.542839,47.932477],[37.521854,47.94582],[37.525158,47.957202],[37.532,47.964589],[37.5412006,47.9745867],[37.5447913,47.9774234],[37.54994079495117,47.97966406726603],[37.558546,47.986451],[37.549621,47.997364],[37.556143,48.009855],[37.573394,48.006899],[37.575434,48.013954],[37.57545386984982,48.01395712754946],[37.575455,48.013961],[37.588566,48.016021],[37.601376,48.016946],[37.616482,48.018095],[37.622662,48.019444],[37.64781,48.028944],[37.669986,48.043363],[37.67946,48.049407],[37.68785,48.054754],[37.691199,48.053406],[37.694294,48.056545],[37.687749,48.061894],[37.693049,48.069307],[37.699702,48.072204],[37.7257935,48.0733245],[37.7266508,48.0795824],[37.7430873,48.0868254],[37.756436,48.08667],[37.773053,48.092032],[37.789283,48.100177],[37.792021,48.104528],[37.8002,48.114966],[37.804106,48.117671],[37.80787819122051,48.12111290000001],[37.808937,48.1220791],[37.81220994485593,48.12632796222367],[37.81680375146947,48.13229167735576],[37.819855,48.143897],[37.824622,48.157818],[37.828593,48.17515],[37.856208,48.192846],[37.88333,48.199712],[37.896571,48.215429],[37.892943,48.233569],[37.89157,48.255061],[37.895347,48.268546],[37.8943398,48.286666],[37.9011467,48.2908822],[37.9006815,48.3232554],[37.9054956,48.3404377],[37.9185517,48.3465274],[37.9236168,48.352797],[37.9292962,48.3594898],[37.9317853,48.3605734],[37.9348411,48.3609871],[37.942023,48.3574628],[37.9447965,48.3596702],[37.9422644,48.3622507],[37.9500832,48.3734333],[37.9584861,48.3771036],[37.970152,48.380317],[37.974959,48.381115],[37.978623,48.391275],[38.00477,48.393954],[38.042123,48.409086],[38.113706,48.408013],[38.117477,48.420805],[38.135244,48.419039],[38.148548,48.414482],[38.163094,48.402117],[38.18906,48.416533],[38.2307474060069,48.39140306535448],[38.238521,48.386717],[38.273689,48.359192],[38.290706,48.361631],[38.321754,48.371053],[38.343578,48.384437],[38.354228,48.390346],[38.367914,48.402171],[38.390964,48.415874],[38.389247,48.432278],[38.393024,48.436606],[38.405377,48.473366],[38.411563,48.51058],[38.414303,48.520605],[38.402637,48.547867],[38.402637,48.59194],[38.40607,48.60193],[38.438793,48.611028],[38.4398590173323,48.613733343986],[38.44125286773345,48.61727131809866],[38.44023620916613,48.619716363572344],[38.4362747,48.6292431],[38.431430900775254,48.633845600258475],[38.426326,48.638696],[38.431476,48.650492],[38.445202,48.655048],[38.464428,48.656408],[38.480228,48.659111],[38.496708,48.663192],[38.515247,48.666367],[38.516148,48.670562],[38.527284,48.674642],[38.539451,48.673509],[38.548978,48.675294],[38.559446,48.686695],[38.572231,48.689056],[38.577732,48.696742],[38.578419,48.70943],[38.583218,48.71987],[38.630135,48.721172],[38.678412,48.723701],[38.674549,48.729363],[38.691727,48.729363],[38.753516,48.718494],[38.76707,48.714322],[38.80844,48.713416],[38.8300687229573,48.71703978603778],[38.836076,48.723267],[38.847148,48.742911],[38.84714961840373,48.742912322969914],[38.8508301663323,48.7459210000301],[38.855387,48.749646],[38.85539,48.749648],[38.85938,48.749592],[38.86060160198118,48.74978961208519],[38.860955,48.750736],[38.86095745507976,48.75073654072209],[38.860958,48.750738],[38.863881,48.751382],[38.871695,48.751308],[38.87762,48.752591],[38.879079,48.752478],[38.880238,48.750611],[38.881332,48.750186],[38.892039,48.750441],[38.89882,48.750186],[38.901094,48.750908],[38.904742,48.75061],[38.908777,48.749252],[38.911137,48.748007],[38.912575,48.746875],[38.914323,48.744385],[38.91803,48.742914],[38.919969,48.743423],[38.921308,48.744611],[38.922724,48.745008],[38.922876216061745,48.74501023260855],[38.93032690791276,48.74526303736485],[38.930652,48.745276],[38.933667,48.746026],[38.935057,48.746856],[38.936961,48.747119],[38.938281,48.746684],[38.93886,48.745814],[38.937959,48.744074],[38.937957,48.744071],[38.93435353483209,48.74291149387108],[38.932466,48.7368],[38.934011,48.735781],[38.94371,48.733856],[38.94607,48.734451],[38.956948,48.734069],[38.961045010904016,48.736515215290986],[38.961217,48.739911],[38.95993,48.742911],[38.961131,48.746137],[38.961133,48.74614],[38.964095,48.746196],[38.966948,48.745206],[38.969834,48.743749],[38.972565,48.743586],[38.974999,48.744765],[38.978814,48.744894],[38.981218,48.743847],[38.982334,48.742192],[38.982205,48.740288],[38.984458,48.737582],[38.989543,48.734989],[38.991439,48.730611],[38.998391,48.724269],[38.999335,48.719626],[38.998048,48.717474],[38.99804701249958,48.7174736930063],[38.998046,48.717472],[38.993918,48.716189],[38.988862,48.715207],[38.984743402075054,48.71362153973084],[38.984308,48.71183],[38.986925,48.71016],[38.991925,48.710004],[38.996925,48.711604],[38.998988,48.711198],[38.99822,48.707677],[38.999507,48.703995],[38.99985,48.7002],[39.001817,48.698009],[39.004829,48.696347],[39.01555,48.694894],[39.015729,48.688642],[39.014356,48.683429],[39.016369,48.680945],[39.019584,48.679141],[39.020278,48.675608],[39.020536,48.672264],[39.023883,48.669884],[39.026286,48.667276],[39.027488,48.663251],[39.02748580790611,48.663249643242864],[39.025426,48.661974],[39.021649,48.662399],[39.018559,48.6641],[39.01298,48.664043],[39.009635278219925,48.662626964516775],[39.010318,48.660086],[39.012374,48.658338],[39.019155,48.656978],[39.02851,48.653009],[39.032209,48.652876],[39.03345,48.651978],[39.035548,48.648245],[39.038084,48.647187],[39.04268,48.646468],[39.054868,48.647036],[39.074352,48.650438],[39.075897,48.651629],[39.084909,48.650665],[39.098556,48.650892],[39.10362,48.649871],[39.111938,48.653349],[39.11683,48.656751],[39.123189,48.66002],[39.127309,48.660474],[39.13949,48.659642],[39.14198429996054,48.660869163602385],[39.142671,48.663533],[39.141641,48.665063],[39.141898,48.66665],[39.144512,48.670911],[39.144514,48.670914],[39.148245999976204,48.67483708555191],[39.148672,48.675285],[39.148674,48.675287],[39.151943,48.676288],[39.157436,48.675382],[39.163351,48.675741],[39.174251,48.680331],[39.181638412455406,48.685750835284985],[39.185415,48.693399],[39.1909,48.69982],[39.190901697307325,48.69982164565366],[39.19510718428041,48.70390020891104],[39.196508,48.706513],[39.19651,48.706516],[39.197519,48.706487],[39.198356,48.705779],[39.19915,48.702267],[39.200373,48.700002],[39.203184,48.698614],[39.207175,48.698302],[39.20722184452248,48.6983274832805],[39.21934602957896,48.705149381862675],[39.219406,48.705184],[39.22489861415386,48.706769888594216],[39.226785,48.708977],[39.226787,48.708979],[39.232366,48.711415],[39.235993,48.71109],[39.23959,48.709127],[39.243517,48.709622],[39.24978150144225,48.712566765642045],[39.2539,48.720153],[39.253307,48.722059],[39.253962,48.724402],[39.256139,48.726872],[39.259229,48.733835],[39.255282,48.738774],[39.255023,48.740685],[39.256311,48.74227],[39.256313,48.742272],[39.258537,48.742744],[39.26447,48.741255],[39.268665,48.741951],[39.27080902954161,48.74398712870727],[39.271675,48.74776],[39.270302,48.751212],[39.270809,48.752759],[39.270810757260286,48.75276025933265],[39.272385,48.753889],[39.274778,48.753683],[39.276661,48.752336],[39.27889,48.749341],[39.282062,48.748611],[39.286436,48.748903],[39.289519969104575,48.7515142803857],[39.289281,48.753683],[39.290643,48.756248],[39.291494,48.759436],[39.292617,48.760605],[39.29261858528437,48.76060552864541],[39.29262,48.760607],[39.299915,48.76304],[39.3030902663922,48.76541545118006],[39.30476699998136,48.76733684831575],[39.308834,48.771998],[39.311846,48.774072],[39.314592,48.774807],[39.324549,48.776051],[39.326258,48.775561],[39.327974,48.773695],[39.327485,48.772111],[39.32748300451054,48.772108014610836],[39.326086001643176,48.77001799459555],[39.326605,48.768311],[39.331673,48.766604],[39.336136,48.765982],[39.340338,48.766303],[39.347245,48.768387],[39.351063,48.768547],[39.352783,48.767944],[39.354504,48.766831],[39.353895,48.765492],[39.35389310601536,48.76549023292045],[39.351326,48.763094],[39.349172,48.762152],[39.34552826490268,48.76166103569352],[39.344956000010505,48.76101317368395],[39.34336489681505,48.75921114826351],[39.343141,48.757363],[39.346178,48.751044],[39.347029,48.750214],[39.347208,48.745781],[39.349268,48.742498],[39.358194,48.737008],[39.358874,48.736178],[39.358877,48.733904],[39.35887499784541,48.7339022248824],[39.358875,48.733901],[39.357119996528624,48.73234623427635],[39.357078,48.732309],[39.354075,48.729648],[39.353724,48.726893],[39.355226,48.725251],[39.361534,48.722307],[39.36913,48.72007],[39.372606,48.719872],[39.374185,48.718655],[39.373789,48.717494],[39.37378708656995,48.717492253588745],[39.37208,48.715934],[39.370458,48.715962],[39.365266,48.71684],[39.360159,48.715679],[39.354131,48.713244],[39.348638,48.713471],[39.34685760486741,48.712225821800146],[39.34866,48.708715],[39.350505,48.707639],[39.355955,48.697216],[39.360313,48.6958],[39.365892,48.692231],[39.367319,48.691976],[39.377988,48.686239],[39.379559,48.686281],[39.381705,48.685516],[39.389601,48.684752],[39.390931,48.68376],[39.389172,48.680388],[39.390526,48.678801],[39.397993,48.674608],[39.402647,48.674437],[39.405823,48.673814],[39.411726,48.670527],[39.413872,48.668429],[39.413528,48.666842],[39.41339800000051,48.66671043638466],[39.408206885843995,48.66145590888099],[39.408035,48.659813],[39.410696,48.657658],[39.414234,48.656694],[39.420748,48.658225],[39.432325,48.656751],[39.43895,48.654942],[39.446504,48.656303],[39.450178,48.655674],[39.452375,48.654713],[39.453387,48.652815],[39.45338419586452,48.65281350815132],[39.453385,48.652812],[39.451308,48.651708],[39.44979998938776,48.65040272194027],[39.449577,48.64456],[39.451642,48.641036],[39.454217,48.639788],[39.457564,48.638654],[39.465815,48.638667],[39.4686795,48.6376897],[39.4654267,48.6335035],[39.4672186,48.6285546],[39.4758449,48.6294616],[39.4819818,48.6290648],[39.494856,48.6330645],[39.5116376,48.6357039],[39.5165791,48.6337256],[39.5183434,48.6302723],[39.5175713,48.6266987],[39.5129236,48.6221295],[39.5280545,48.6128737],[39.5298325,48.6093625],[39.5245243,48.6026385],[39.5269318,48.5985413],[39.5341908,48.5967686],[39.5350124,48.5928382],[39.5292488,48.5912185],[39.5306906,48.5856913],[39.539875,48.5840166],[39.549313933646175,48.58597557114568],[39.549059,48.595854],[39.5549814,48.5982948],[39.5635639,48.5990889],[39.5694136,48.5911155],[39.5640858,48.5845992],[39.5743396,48.5817384],[39.5841637,48.5883036],[39.5913857,48.5922505],[39.600613,48.5928753],[39.6064064,48.5886179],[39.6058783,48.5855209],[39.5968664,48.5795022],[39.6010726,48.5749594],[39.6110289,48.5740514],[39.6195254,48.5830228],[39.6210707,48.5867134],[39.6236025,48.5870259],[39.6334311,48.5812628],[39.6713252,48.5892403],[39.6769896,48.5890127],[39.687271,48.587084],[39.687101,48.589208],[39.682672,48.592689],[39.679362,48.591808],[39.679467,48.590602],[39.678799,48.590094],[39.676478,48.590863],[39.675839,48.591785],[39.676018,48.594721],[39.678178,48.59586],[39.679654,48.595476],[39.680608,48.596402],[39.678671,48.59812],[39.676001,48.59795],[39.675274,48.59694],[39.671427,48.595451],[39.668806,48.596567],[39.668176,48.598181],[39.668158,48.601311],[39.670944,48.603218],[39.670576,48.604588],[39.667113,48.605231],[39.663374,48.604922],[39.661023,48.606551],[39.660623,48.60909],[39.661447,48.610904],[39.663798,48.613004],[39.66617,48.617721],[39.666873,48.620065],[39.671535,48.624331],[39.680063,48.629498],[39.687768,48.632823],[39.69424,48.637614],[39.694362,48.639673],[39.69377,48.643208],[39.69153,48.644962],[39.691241,48.646322],[39.693715,48.649408],[39.699904,48.652604],[39.70227,48.653309],[39.7050968,48.6560382],[39.7065218,48.6561225],[39.7089381,48.6542778],[39.710628,48.6547009],[39.710644,48.6572976],[39.709655,48.660003],[39.709526,48.662254],[39.711308,48.667218],[39.710291,48.668063],[39.707323,48.666964],[39.705013,48.666918],[39.70426,48.666623],[39.702902,48.667225],[39.701721,48.669404],[39.704033,48.671485],[39.707944,48.672792],[39.712113,48.674652],[39.713498,48.676128],[39.714196,48.680225],[39.717084,48.68144],[39.721986,48.682727],[39.722967,48.684162],[39.7225463,48.6849558],[39.718497,48.687429],[39.716681,48.689934],[39.718827,48.693317],[39.715965,48.695208],[39.720211,48.697203],[39.717876,48.703361],[39.713158,48.700835],[39.704492,48.706805],[39.712561,48.71167],[39.712262,48.715916],[39.704838,48.721463],[39.725463,48.72709],[39.726615,48.729372],[39.722706,48.731886],[39.724062,48.734598],[39.725599,48.737681],[39.725011,48.740452],[39.728882,48.74109],[39.731647,48.742096],[39.732192,48.744333],[39.7336281,48.7449073],[39.735438,48.743794],[39.737309,48.743188],[39.739365,48.743631],[39.739575,48.744478],[39.738736,48.747477],[39.736921,48.748898],[39.736376,48.752183],[39.740082,48.766418],[39.755303,48.767977],[39.76094,48.763862],[39.766204,48.764237],[39.768551,48.76631],[39.76866,48.769329],[39.766036,48.771031],[39.76363,48.771034],[39.765451,48.778079],[39.773495,48.784419],[39.780194,48.786082],[39.785854,48.799158],[39.797126,48.840576],[39.804672,48.843576],[39.808044,48.83948],[39.807503,48.838581],[39.827832,48.831465],[39.830439,48.833554],[39.886255,48.820946],[39.936737,48.800795],[39.976403,48.793903],[40.078831,48.869867],[40.071286,48.876975],[40.055495,48.910098],[40.031195,48.915801],[40.00398,48.900793],[39.99343,48.868286],[39.950652,48.875459],[39.940309,48.886691],[39.924336,48.895717],[39.853161,48.890737],[39.845802,48.902911],[39.836789,48.903052],[39.8346532,48.8919435],[39.828093,48.8874042],[39.8187858,48.8955055],[39.8186348,48.9057879],[39.805377,48.914842],[39.782372,48.915745],[39.790097,48.938471],[39.776879,48.946025],[39.7755761,48.9554911],[39.7577897,48.9665346],[39.7484123,48.9792674],[39.75208,48.986592],[39.747268,48.987412],[39.736045,48.982483],[39.729833,48.978068],[39.730221,48.976738],[39.727004,48.975591],[39.72482,48.976565],[39.724478,48.978068],[39.726482,48.978679],[39.725227,48.980236],[39.717623,48.982354],[39.71677,48.987067],[39.707619,48.99359],[39.705674,48.997642],[39.699288,49.00097],[39.693269,48.999302],[39.691124,48.99629],[39.67693,48.989538],[39.663411,49.000872],[39.670277,49.003148],[39.679204,49.012886],[39.673658,49.014934],[39.675663,49.026888],[39.681736,49.028733],[39.683582,49.036925],[39.673217,49.03933],[39.682089,49.045779],[39.693366,49.05054],[39.74032,49.04222],[39.766623,49.040132],[39.787133,49.049358],[39.803143,49.059202],[39.880305,49.06432],[39.910263,49.057462],[39.937951,49.056277],[39.942532,49.071347],[39.938169,49.082798],[39.958701,49.105564],[39.972108,49.124488],[40.031575,49.180241],[40.07613,49.186828],[40.10829,49.210883],[40.137226,49.239885],[40.188228,49.238626],[40.21437,49.244887],[40.219264,49.265172],[40.185745,49.284288],[40.18404,49.303985],[40.188526,49.307443],[40.196814,49.345228],[40.176429,49.356618],[40.170182,49.3564],[40.159805,49.366018],[40.162603,49.367837],[40.156906,49.372669],[40.129549,49.382381],[40.105631,49.391292],[40.076909,49.409957],[40.059551,49.435263],[40.02919,49.453599],[40.04176,49.499103],[40.037599,49.519895],[40.168435,49.568921],[40.135258,49.616254],[40.063538,49.599233],[40.056729,49.606573],[39.952223,49.596549],[39.934601,49.572783],[39.890224,49.558359],[39.838914,49.563518],[39.805312,49.55805],[39.750232,49.596719],[39.7146353,49.6064792],[39.696747,49.604291],[39.686926,49.611558],[39.659995,49.614811],[39.638379,49.6351],[39.613305,49.691362],[39.59136,49.719134],[39.610109,49.733798],[39.533835,49.740848],[39.478761,49.756475],[39.438201,49.760006],[39.412062,49.753111],[39.376963,49.738424],[39.307924,49.753044],[39.28556,49.755666],[39.27547,49.768026],[39.264639,49.76848],[39.250371,49.777802],[39.239146,49.798226],[39.228992,49.808432],[39.228114,49.816503],[39.225656,49.840184],[39.188395,49.886222],[39.178402,49.888001],[39.130738,49.861568],[39.110366,49.837773],[39.069763,49.818731],[39.066233,49.815349],[39.033522,49.822372],[39.02166,49.82091],[38.984906,49.807783],[38.971138,49.807221],[38.949095,49.796102],[38.94035,49.800888],[38.930753,49.797174],[38.927811,49.798576],[38.9287,49.803888],[38.920357,49.804946],[38.916163,49.812724],[38.919124,49.814665],[38.909372,49.81917],[38.907392,49.828412],[38.913507,49.82863],[38.915094,49.831059],[38.911398,49.834589],[38.913878,49.836114],[38.912225,49.844315],[38.906706,49.845044],[38.90505,49.849149],[38.90967,49.850849],[38.918648,49.8579],[38.916488,49.859925],[38.909338,49.860103],[38.898467,49.870416],[38.876416,49.869423],[38.869398,49.864488],[38.856713,49.869139],[38.849104,49.865103],[38.836346,49.867366],[38.835371,49.870964],[38.837392,49.872222],[38.836414,49.873896],[38.833654,49.874806],[38.828584,49.877172],[38.822432,49.878984],[38.794958,49.88331],[38.79015,49.87851],[38.783488,49.881113],[38.777683,49.88532],[38.768232,49.896044],[38.743847,49.897307],[38.733846,49.905025],[38.723247,49.927005],[38.6929,49.934766],[38.6853,49.960344],[38.715315,49.982384],[38.715136,49.98771],[38.687546,50.008152],[38.679052,50.005448],[38.676054,49.992814],[38.679731,49.974494],[38.666941,49.972156],[38.646196,49.955937],[38.616078,49.97439],[38.58157,49.977416],[38.526715,49.958271],[38.507898,49.96403],[38.487706,49.963602],[38.4833,49.976528],[38.47752,49.983271],[38.465914,49.983961],[38.46804,49.995247],[38.434095,50.001019],[38.416008,49.981338],[38.397563,49.990585],[38.349575,50.006444],[38.354164,50.019048],[38.3512,50.034741],[38.333976,50.059093],[38.329442,50.08551],[38.313196,50.088337],[38.301154,50.087142],[38.291493,50.079436],[38.275781,50.07344],[38.25406,50.072508],[38.178568,50.079969],[38.185066,50.055692],[38.183827,50.045832],[38.187923,50.04072],[38.188245,50.023603],[38.186149,50.022947],[38.185416,50.022222],[38.186831,50.02169],[38.192054,50.014595],[38.197286,50.008256],[38.201117,50.004728],[38.200786,50.003778],[38.202728,50.001836],[38.205135,50.001004],[38.204578,49.997644],[38.207712,49.991511],[38.210852,49.989247],[38.217126,49.987182],[38.196332,49.969759],[38.162402,49.951496],[38.171565,49.941901],[38.126682,49.92215],[38.124994,49.942552],[38.056464,49.923247],[38.033921,49.904761],[38.012367,49.918497],[38.043687,49.932897],[38.005373,49.967245],[37.999075,49.963601],[37.980562,49.976794],[37.965809,49.979304],[37.962041,49.982918],[37.9394452,50.0155812],[37.92525,50.0139935],[37.9107566,50.0035725],[37.9047967,50.0044424],[37.8993517,50.0040983],[37.8983431,50.0009688],[37.8944701,49.9988385],[37.8922711,49.9956875],[37.8913719,49.9894833],[37.8869122,49.9888827],[37.8854604,49.9814384],[37.8794112,49.9809706],[37.874907,49.9819376],[37.8664195,49.9798684],[37.855187,49.9745972],[37.8548556,49.9712574],[37.8486879,49.9712297],[37.8447425,49.9724379],[37.8368488,49.9719897],[37.8350489,49.9733631],[37.8299874,49.9736323],[37.8174608,49.9595715],[37.8191809,49.9575655],[37.8178111,49.9564429],[37.8083758,49.9536924],[37.8083366,49.9507424],[37.802781,49.9480249],[37.8019072,49.9469589],[37.8046382,49.9460033],[37.802204,49.943098],[37.793004,49.940646],[37.7886343,49.9373978],[37.7863092,49.9384916],[37.7802023,49.9355403],[37.7737126,49.9293274],[37.7750178,49.9215245],[37.7711212,49.9134782],[37.7736363,49.9111685],[37.7714306,49.9063161],[37.7655301,49.9043661],[37.7652949,49.8999837],[37.7541654,49.8996929],[37.747108,49.8946865],[37.7451248,49.8911879],[37.7424552,49.8892375],[37.7446508,49.8877397],[37.74046,49.884523],[37.7361415,49.8789012],[37.732253,49.875381],[37.7315554,49.870661],[37.732746,49.866107],[37.728262,49.860706],[37.726015,49.859038],[37.716123,49.856783],[37.707734,49.852978],[37.70339,49.850689],[37.701148,49.848675],[37.6967977,49.8457523],[37.6924477,49.8447112],[37.6915092,49.842895],[37.6882769,49.8410931],[37.6877914,49.8375751],[37.6838791,49.8368967],[37.6815975,49.8377683],[37.6800385,49.8374077],[37.6800105,49.836133],[37.6814997,49.8325871],[37.6805038,49.8307491],[37.6772253,49.8298413],[37.676433,49.8288578],[37.677496,49.8258191],[37.6750397,49.816745],[37.6707479,49.8118691],[37.6719062,49.8084052],[37.6689065,49.8053769],[37.6588465,49.802089],[37.6603173,49.7992974],[37.6623033,49.7973922],[37.6599057,49.7956987],[37.6602558,49.7948004],[37.6573587,49.7932366],[37.6615853,49.7914789],[37.669049,49.7901866],[37.6754396,49.7880076],[37.683026,49.7872846],[37.6843471,49.7864233],[37.6802822,49.7802555],[37.683045,49.778416],[37.6828036,49.776521],[37.6861829,49.775059],[37.6886284,49.7714641],[37.6952364,49.7699478],[37.6977662,49.7709064],[37.6982262,49.7696944],[37.7067168,49.773717],[37.7105731,49.7745797],[37.7257166,49.7686331],[37.7281221,49.758809],[37.7314694,49.7582213],[37.7469526,49.7578942],[37.7591729,49.7534622],[37.7709961,49.7559453],[37.7744377,49.7563863],[37.7868003,49.7511677],[37.7864786,49.7440931],[37.7853839,49.73968],[37.7943846,49.7367249],[37.8043287,49.7353224],[37.8108397,49.7408806],[37.8229307,49.7408356],[37.8318423,49.7404657],[37.843778,49.7338581],[37.8404883,49.7317279],[37.8431613,49.728888],[37.8408064,49.7256369],[37.8426324,49.724289],[37.8619657,49.7161672],[37.8686845,49.7125642],[37.8854023,49.7059138],[37.9018845,49.7032094],[37.9032109,49.6937617],[37.8947961,49.6850081],[37.8924073,49.6774295],[37.8818584,49.6741643],[37.8816441,49.6713042],[37.8836608,49.6629987],[37.885536,49.6596275],[37.8897583,49.6584689],[37.8908054,49.6506142],[37.8852413,49.6509002],[37.8796348,49.6495991],[37.8789992,49.6485045],[37.8733686,49.6480364],[37.8734716,49.6471494],[37.8840455,49.6437335],[37.8828133,49.6386656],[37.8843707,49.6357371],[37.8895042,49.6344454],[37.8916951,49.6350164],[37.894057,49.6318171],[37.8955408,49.6293177],[37.8949463,49.626709],[37.897138,49.623343],[37.8944378,49.6166104],[37.8961597,49.6119789],[37.8910549,49.6112902],[37.8949629,49.6047054],[37.8812117,49.6039339],[37.8791828,49.5987713],[37.8712561,49.5963585],[37.8576653,49.5952798],[37.8486791,49.5986847],[37.8428957,49.5959249],[37.8335601,49.5973021],[37.8315409,49.5954944],[37.8384446,49.5907708],[37.8450418,49.5905316],[37.8553327,49.5909501],[37.8606667,49.5874633],[37.8521816,49.58431],[37.8392459,49.5782799],[37.8311346,49.5758022],[37.8258635,49.5746368],[37.8217941,49.5754748],[37.8198758,49.5794757],[37.8158264,49.5795004],[37.8150387,49.5732916],[37.8158365,49.5679354],[37.8040933,49.55927],[37.8053205,49.5550332],[37.8213103,49.558368],[37.8302708,49.5615074],[37.8418492,49.5628369],[37.8468622,49.5625505],[37.8567097,49.5586762],[37.8814042,49.5579175],[37.8857215,49.5545793],[37.8847236,49.548276],[37.8852948,49.5452427],[37.8864384,49.5401058],[37.917604,49.5341855],[37.923188,49.5292649],[37.8979251,49.5191232],[37.8999062,49.5175064],[37.9011545,49.5135216],[37.9068658,49.5121],[37.9117034,49.5172066],[37.9341602,49.5221147],[37.9458487,49.5212049],[37.9461212,49.5185675],[37.9436624,49.5142677],[37.9402574,49.5100352],[37.9166897,49.5100926],[37.9161929,49.5083066],[37.9427823,49.5065024],[37.9431941,49.4934965],[37.9384501,49.4785982],[37.9340196,49.4786206],[37.9134245,49.481189],[37.9125701,49.480522],[37.9187748,49.4678234],[37.9159355,49.4569386],[37.9290665,49.4556359],[37.9326702,49.456732],[37.9421066,49.4507111],[37.9357497,49.4431279],[37.9289168,49.4399039],[37.9265651,49.4361096],[37.9088325,49.4362707],[37.9085238,49.4350924],[37.9164546,49.4336909],[37.9160089,49.4311672],[37.9109794,49.4287331],[37.9119837,49.4274046],[37.92878,49.424289],[37.948687,49.403562],[37.942766,49.398993],[37.944869,49.395759],[37.943196,49.392525],[37.940195,49.380594],[37.945471,49.369306],[37.949072,49.362706],[37.954308,49.361588],[37.949573,49.353118],[37.947628,49.351399],[37.941921,49.349687],[37.943867,49.346904],[37.941177,49.344568],[37.942329,49.341848],[37.941789,49.338838],[37.950047,49.337701],[37.953435,49.336622],[37.957295,49.334845],[37.962823,49.334169],[37.964944,49.332475],[37.965519,49.330277],[37.966392,49.322245],[37.961857,49.317318],[37.961584,49.311489],[37.969378,49.311145],[37.969614,49.303038],[37.962008,49.303265],[37.967716,49.286555],[37.9839011,49.2795648],[37.9813732,49.273246],[37.9841874,49.2709874],[37.9957557,49.2707725],[38.009803,49.261509],[38.005429,49.249438],[37.9925129,49.243347],[37.9925117,49.2410936],[38.0024555,49.238003],[38.0062165,49.2326697],[38.0017824,49.2244775],[38.0023263,49.2228998],[37.9922379,49.2226115],[37.984533,49.2224107],[37.9803753,49.2210851],[37.9803564,49.2194694],[37.9854872,49.219255],[37.9918484,49.2172766],[38.0142371,49.2103318],[38.0140106,49.2000219],[38.0194722,49.198554],[38.0278035,49.1920708],[38.0438601,49.1948405],[38.047226,49.190491],[38.0498534,49.1823708],[38.0357285,49.1813158],[38.0324826,49.1771529],[38.0264047,49.1769174],[38.0255973,49.1755095],[38.0352612,49.1747748],[38.0383586,49.1721881],[38.0354864,49.1627846],[38.0460028,49.1605648],[38.0483835,49.1532817],[38.0523509,49.1456179],[38.072431,49.135021],[38.083806,49.133668],[38.080758,49.123777],[38.0772762,49.1143362],[38.0642709,49.1008471],[38.0646853,49.0981923],[38.0530909,49.0933817],[38.0451019,49.095989],[38.0420842,49.0937563],[38.0252975,49.0929494],[38.0112567,49.094726],[38.0090698,49.0878141],[38.0031859,49.0869324],[37.9981925,49.0789281],[37.9918903,49.0809165],[37.9915653,49.0781106],[37.9898985,49.0754636],[37.9938093,49.0745333],[37.998925,49.0708499],[37.9980261,49.0661451],[38.0026964,49.061513],[38.0018228,49.0534811],[37.9994771,49.0462303],[37.9860084,49.0459242],[37.9884366,49.0394558],[37.9815955,49.0387262],[37.9818797,49.0370506],[37.993944,49.035158],[38.003077,49.019388],[38.00967,49.015013],[38.041265,49.014787],[38.0584773,49.0136858],[38.0592099,49.00791],[38.072416,49.0074698],[38.0856818,49.0049971],[38.0916159,48.9991105],[38.098026,48.99471],[38.102926,48.985722],[38.105879,48.976208],[38.157073,48.976912],[38.169416,48.97551],[38.2003386,48.9747272],[38.201663,48.961083],[38.202165,48.957348],[38.203698,48.957331],[38.203931,48.954594],[38.200313,48.954295],[38.201772,48.949913],[38.2057631,48.9450228],[38.2070939,48.9413998],[38.2060632,48.9396878],[38.2111703,48.9393287],[38.2189385,48.9425425],[38.2274378,48.9430408],[38.23465,48.944666],[38.23809,48.946707],[38.243964,48.947259],[38.257479,48.942787],[38.2584205,48.9395547],[38.2566354,48.935167],[38.2562913,48.9320383],[38.2651985,48.9252152],[38.271561,48.922118],[38.271124,48.921035],[38.267106,48.920277],[38.266178,48.918955],[38.267783,48.918197],[38.267126,48.916775],[38.270674,48.915748],[38.271125,48.910911],[38.270354,48.90747],[38.267509,48.903563],[38.261915,48.901493],[38.262502,48.900157],[38.274574,48.895171],[38.272754,48.891694],[38.267902,48.890249],[38.267894,48.889447],[38.260701,48.888971],[38.257643,48.889655],[38.253674,48.888822],[38.252689,48.885633],[38.250204,48.883995],[38.248813,48.880268],[38.245057,48.880601],[38.244584,48.879576],[38.233854,48.882038],[38.233786,48.880076],[38.235014,48.877435],[38.228545,48.868924],[38.2294311,48.8643291],[38.242558,48.865034],[38.244884,48.856618],[38.252486,48.842491],[38.2530009,48.8291672],[38.2558098,48.8188177],[38.2593022,48.8141194],[38.2598077,48.8094692],[38.2567945,48.8076734],[38.2551456,48.807021],[38.2528641,48.8014199],[38.2513319,48.7955576],[38.2316466,48.7957738],[38.2249439,48.7935166],[38.2060917,48.7901739],[38.1915251,48.7865335],[38.1880228,48.7896102],[38.184606,48.790764],[38.1787165,48.7895656],[38.1758628,48.7885075],[38.174168,48.7862337],[38.1771302,48.7830476],[38.1782569,48.7730725],[38.1593018,48.7647511],[38.1421778,48.7676056],[38.1290239,48.7674481],[38.1144114,48.7657626],[38.1088325,48.7653364],[38.0924818,48.7678926],[38.0822474,48.7711945],[38.0706388,48.7717801],[38.0695618,48.7693353],[38.0699675,48.765454],[38.0741493,48.7611201],[38.0688668,48.7560662],[38.060568,48.7490694],[38.0582375,48.7482236],[38.053961,48.747843],[38.0513581,48.7485092],[38.048427,48.747183],[38.042234,48.747044],[38.034627,48.750284],[38.029467,48.750722],[38.028426,48.749363],[38.027522,48.74731],[38.027763,48.745535],[38.026323,48.741013],[38.022599,48.740876],[38.013382,48.739464],[37.998693,48.738288],[37.99097,48.725148],[37.988396,48.716876],[37.979729,48.707306],[37.962794,48.7011],[37.93865,48.702072],[37.934579,48.703062],[37.923082,48.709505],[37.917369,48.705556],[37.920251,48.701381],[37.916225,48.697218],[37.912389,48.695675],[37.9097541,48.6933098],[37.910438,48.690366],[37.915522,48.688725],[37.9107748,48.6846255],[37.911087,48.6834025],[37.9090056,48.6792797],[37.910365,48.672952],[37.911259,48.670368],[37.90811,48.663309],[37.8940485,48.6634029],[37.8900441,48.659417],[37.8856742,48.6543223],[37.8918183,48.6503332],[37.890728,48.64777],[37.887736,48.644912],[37.88483,48.641203],[37.8761851,48.6373583],[37.8743603,48.6307897],[37.8668138,48.6185578],[37.8526596,48.6182533],[37.8494001,48.6169075],[37.8543373,48.6109936],[37.8561437,48.6025694],[37.8592072,48.6008529],[37.8672076,48.5932044],[37.8662999,48.5919706],[37.869033,48.5916718],[37.8715202,48.5886815],[37.8719775,48.5764977],[37.8722555,48.5736063],[37.8745074,48.5723618],[37.8767625,48.5691493],[37.8785639,48.5659465],[37.8846581,48.5617206],[37.8909902,48.5612372],[37.896818,48.5616207],[37.901874,48.561663],[37.9060209,48.5604668],[37.9133186,48.5621386],[37.9168152,48.5623313],[37.919959,48.5627212],[37.9234143,48.5616832],[37.9264623,48.5618793],[37.9385981,48.563385],[37.9531413,48.5621159],[37.9543559,48.5597093],[37.9588319,48.5605973],[37.9592016,48.5571827],[37.960776,48.554844],[37.9608806,48.5533423],[37.9564176,48.5511635],[37.9561173,48.549023],[37.957598,48.5471808],[37.9557528,48.5447747],[37.9575908,48.5412345],[37.9592813,48.5411768],[37.9636708,48.5391577],[37.9728366,48.53792],[37.9791783,48.5395645],[37.982645,48.5378297],[37.9837129,48.5349876],[37.98279,48.5322302],[37.9808052,48.5322222],[37.9770181,48.5247965],[37.9816154,48.5233869],[37.9826614,48.5197533],[37.9808749,48.517484],[37.9868611,48.5141347],[37.9823317,48.5031561],[37.9760431,48.5011052],[37.9723324,48.4903525],[37.9675129,48.4876151],[37.9608708,48.4787902],[37.9515469,48.4791652],[37.952159,48.474903],[37.9477389,48.4730511],[37.956586,48.460819],[37.956943,48.458893],[37.953841,48.457432],[37.940427,48.452091],[37.940228,48.449226],[37.952923,48.429599],[37.951222,48.42725],[37.952569,48.426282],[37.952117,48.424393],[37.954669,48.423059],[37.952584,48.417956],[37.952916,48.416298],[37.946291,48.4104189],[37.9400634,48.4091965],[37.928515,48.4062649],[37.9280633,48.403614],[37.9202731,48.4028719],[37.915765,48.4016157],[37.9106514,48.399396],[37.9094938,48.4002549],[37.9018561,48.399575],[37.8900128,48.397157],[37.8900778,48.3958627],[37.9032749,48.3968475],[37.9081723,48.3959517],[37.9078487,48.393808],[37.9051714,48.3898906],[37.9022308,48.3888474],[37.9005492,48.3864512],[37.895992,48.3828009],[37.8940762,48.3837713],[37.8902003,48.3831099],[37.8894673,48.3830587],[37.8882318,48.3817148],[37.887361,48.3804563],[37.8890494,48.378387],[37.8896942,48.3749858],[37.886115,48.3730669],[37.8808966,48.3706272],[37.8780823,48.368797],[37.8768131,48.3688769],[37.8726862,48.366276],[37.8702331,48.3639316],[37.8708698,48.3621801],[37.874253,48.3612269],[37.8817919,48.3547006],[37.8970349,48.3459413],[37.8950498,48.3418928],[37.8934828,48.3367553],[37.8869384,48.3307048],[37.8639955,48.3279997],[37.8523801,48.3275041],[37.8470346,48.3281188],[37.8414312,48.3296454],[37.8417528,48.3334379],[37.844692,48.337186],[37.8441446,48.3395734],[37.8416231,48.3415045],[37.839948,48.3412103],[37.8377567,48.3393668],[37.8371933,48.3343388],[37.8349242,48.333162],[37.8311101,48.3334686],[37.8270256,48.3351304],[37.8221851,48.3346222],[37.8212693,48.332058],[37.8134503,48.329889],[37.7996495,48.3278924],[37.7981568,48.3239267],[37.7980369,48.3181911],[37.8063974,48.3154478],[37.80568,48.3109897],[37.8018563,48.3051582],[37.7969174,48.3041792],[37.7971285,48.3005883],[37.7923606,48.2997667],[37.7930609,48.2958815],[37.7955353,48.294096],[37.8014859,48.2943089],[37.806681,48.272586],[37.788929,48.27134],[37.7818166,48.2663306],[37.774521,48.2662445],[37.7701003,48.2668012],[37.7640276,48.2629127],[37.760959,48.2575949],[37.7546493,48.2563026],[37.7487912,48.2513746],[37.7395,48.2464744],[37.7263291,48.2458096],[37.7232417,48.2541568],[37.735645,48.2642152],[37.7348512,48.2662726],[37.7096093,48.2658049],[37.690753,48.2645265],[37.6748196,48.2704808],[37.6706937,48.2718296],[37.6583772,48.2722153],[37.6476054,48.2735439],[37.643657,48.273901],[37.6383785,48.2717446],[37.6329988,48.2704582],[37.6327003,48.2740225],[37.6158136,48.2766628],[37.6175286,48.2865592],[37.6062298,48.2883881],[37.6028704,48.2880469],[37.6003691,48.283979],[37.5980398,48.2823099],[37.5929737,48.2836336],[37.5884222,48.2863279],[37.5858262,48.2842449],[37.5773938,48.2839896],[37.5669241,48.2917036],[37.5601467,48.2991983],[37.5481736,48.2931045],[37.5418973,48.2963063],[37.5393117,48.2954537],[37.5287951,48.3015679],[37.5281714,48.3008707],[37.5285777,48.2978896],[37.5277601,48.2930689],[37.5232802,48.2842974],[37.5198657,48.2792059],[37.516556,48.2783899],[37.5116076,48.2780177],[37.5092838,48.2768607],[37.5068575,48.2773782],[37.4986364,48.281538],[37.4936763,48.283641],[37.4729689,48.2844736],[37.4608985,48.2850247],[37.4553543,48.2868793],[37.4477497,48.2856495],[37.4400512,48.2850459],[37.4394744,48.2809528],[37.4413865,48.2779449],[37.4364993,48.2742426],[37.4197822,48.2823961],[37.4126114,48.2815673],[37.4088839,48.2638599],[37.4103312,48.2530043],[37.4046746,48.251712],[37.4001494,48.252232],[37.3971692,48.2506943],[37.4023003,48.2467564],[37.4061422,48.2416174],[37.4002102,48.2353042],[37.3896902,48.2287746],[37.390696,48.2225935],[37.3761663,48.2211582],[37.370995,48.2268304],[37.3612314,48.224925],[37.3673361,48.219856],[37.3723197,48.2122081],[37.3817547,48.2054195],[37.3855855,48.1912602],[37.3915609,48.1911757],[37.391324,48.1935239],[37.4010628,48.1939854],[37.4085239,48.1959375],[37.4168322,48.2015773],[37.435455,48.2052974],[37.4382178,48.2019041],[37.4462773,48.2032068],[37.4515046,48.2025078],[37.4539857,48.2003493],[37.4591329,48.1997644],[37.4630788,48.2016395],[37.4691433,48.1988694],[37.4732769,48.2029536],[37.4741492,48.2053216],[37.4781259,48.2058243],[37.4802568,48.2126702],[37.4820446,48.2143109],[37.4918043,48.214191],[37.4964071,48.2088415],[37.5018821,48.2017866],[37.4996315,48.1951881],[37.5035497,48.1798097],[37.5064236,48.1792397],[37.5084368,48.1898337],[37.5170142,48.190015],[37.5268734,48.1889469],[37.5294663,48.1827353],[37.536858,48.1819693],[37.5403787,48.1685161],[37.5334458,48.1606892],[37.5298678,48.1597033],[37.5314712,48.150521],[37.5381493,48.1442653],[37.5434353,48.14192],[37.5475845,48.1383993],[37.5433595,48.1370895],[37.541884,48.1343262],[37.5467025,48.1288354],[37.5439498,48.118971],[37.5341739,48.1198154],[37.5329415,48.1199098],[37.5227392,48.1193162],[37.5146779,48.1222457],[37.5075843,48.1242668],[37.5067948,48.1223912],[37.509975,48.1212747],[37.5091348,48.1159489],[37.5100511,48.113571],[37.5197698,48.1090558],[37.5256392,48.104963],[37.529779,48.1050637],[37.5320007,48.1045281],[37.5335468,48.1002193],[37.5427309,48.0938758],[37.5741982,48.0830749],[37.5863787,48.0789693],[37.5909992,48.0765472],[37.5979485,48.0713532],[37.5908754,48.0661563],[37.5896679,48.0628274],[37.5794218,48.0617803],[37.5755681,48.0613712],[37.5754437,48.0575669],[37.5784951,48.0546804],[37.5798783,48.0439063],[37.5730409,48.036933],[37.573459,48.032381],[37.570798,48.014241],[37.558525,48.014097],[37.5446943,48.0108497],[37.5415932,48.0083484],[37.5374438,48.0081034],[37.5285309,48.010758],[37.5217411,48.0124858],[37.5029984,48.0194774],[37.5001494,48.0209918],[37.4965279,48.0200375],[37.4933872,48.0177031],[37.4870168,48.001643],[37.4892095,47.9996106],[37.4919717,47.9942949],[37.4957296,47.9914463],[37.5001846,47.9843535],[37.4982881,47.9713845],[37.4908604,47.9654657],[37.490121,47.9648144],[37.4894247,47.9634304],[37.4825228,47.9601402],[37.478681,47.9631261],[37.477656,47.9627481],[37.4714054,47.9629074],[37.46397,47.9644835],[37.4631813,47.9636192],[37.4587098,47.9645879],[37.4526507,47.9623381],[37.4519636,47.9599013],[37.4567473,47.9516066],[37.4568035,47.9476912],[37.4551989,47.9457094],[37.452394,47.9414717],[37.4510533,47.9408219],[37.4517779,47.9288092],[37.4543901,47.9182917],[37.4555505,47.9155126],[37.4556905,47.90417],[37.4768591,47.8981768],[37.4803363,47.899324],[37.4840234,47.8984451],[37.4795229,47.8772858],[37.4752149,47.8657144],[37.4661314,47.8658998],[37.4608395,47.8644969],[37.4493674,47.867815],[37.4475689,47.8652203],[37.4259462,47.8667337],[37.4193341,47.8618021],[37.4211344,47.845468],[37.4202073,47.8316995],[37.4128893,47.8350359],[37.3962969,47.8371954],[37.3954116,47.8336503],[37.3877189,47.8321495],[37.3831028,47.8294402],[37.3801197,47.8105372],[37.3648646,47.8095265],[37.3587514,47.8013265],[37.3425955,47.7914993],[37.336287,47.781292],[37.3347849,47.7796769],[37.3297495,47.7654659],[37.3280676,47.765138],[37.3196414,47.7668898],[37.3039533,47.768558],[37.3026933,47.7640267],[37.2976072,47.7631668],[37.2954706,47.7631331],[37.2903181,47.7618401],[37.287694,47.760546],[37.2600641,47.7609635],[37.2557926,47.7598123],[37.255891,47.7574051],[37.2516978,47.7568156],[37.2495215,47.7557929],[37.2459202,47.7555369],[37.240688,47.757762],[37.235638,47.758295],[37.221064,47.761376],[37.2012127,47.764636],[37.1975069,47.7539109],[37.1838145,47.7427138],[37.1668243,47.7381207],[37.1542969,47.7365267],[37.1447775,47.7375516],[37.1414157,47.7428758],[37.1380526,47.7428904],[37.1334453,47.7356027],[37.1254474,47.7357035],[37.1119402,47.7386748],[37.098998,47.7401617],[37.078458,47.74209],[37.053542,47.743666],[37.024232,47.744782],[36.9787842,47.7593195],[36.9694143,47.7604831],[36.9467796,47.7625505],[36.9276968,47.7456544],[36.8840061,47.747401],[36.8521917,47.74696],[36.8424831,47.7487321],[36.829178,47.7502024],[36.8232981,47.7507076],[36.8240893,47.7629727],[36.8166309,47.7629314],[36.8089151,47.7546966],[36.8046082,47.7542617],[36.8020179,47.7564522],[36.8007748,47.7579338],[36.7981585,47.757771],[36.7969599,47.7564644],[36.7963652,47.7546012],[36.7934712,47.754794],[36.7858809,47.7558434],[36.7709842,47.7556056],[36.7582803,47.7548173],[36.7478945,47.7566838],[36.7474653,47.7582615],[36.7245454,47.7566664],[36.7222932,47.7575291],[36.7194401,47.7580456],[36.7141405,47.7578404],[36.7072101,47.7590774],[36.7061969,47.7555187],[36.6909568,47.7533885],[36.6829625,47.7538954],[36.6809766,47.7496702],[36.6803947,47.7478825],[36.6734326,47.7474305],[36.6656139,47.7466321],[36.6582339,47.7452194],[36.6492639,47.7400677],[36.6434697,47.737253],[36.6383198,47.7296906],[36.6214748,47.7283634],[36.6143299,47.7241483],[36.5994922,47.7198943],[36.5738421,47.7175424],[36.555749,47.70034],[36.5537424,47.6878145],[36.5531092,47.6710131],[36.538214,47.668917],[36.521186,47.668959],[36.5076589,47.6544507],[36.4832921,47.6428385],[36.4170491,47.6378498],[36.4030818,47.6436789],[36.3914199,47.6416485],[36.3861042,47.6411535],[36.3852517,47.6403692],[36.3860706,47.6361207],[36.3767226,47.6351407],[36.3727825,47.6327431],[36.373645,47.629057],[36.367813,47.628263],[36.3625128,47.6318861],[36.3408192,47.6266576],[36.338205,47.618398],[36.310331,47.6057183],[36.2707665,47.5950414],[36.2225906,47.5875224],[36.2243629,47.5780835],[36.2153866,47.5771638],[36.2133627,47.5766493],[36.2105165,47.5771254],[36.2046516,47.5821304],[36.186966,47.580843],[36.133198,47.575124],[36.128116,47.574827],[36.116706,47.57794],[36.105724,47.578503],[36.087362,47.573854],[36.08291,47.551831],[36.0737337,47.5329318],[36.0671355,47.5262561],[36.0316841,47.5261243],[36.0300099,47.5222894],[36.020784,47.515904],[36.018983,47.5113156],[35.9951705,47.5126051],[35.9754999,47.5102396],[35.971276,47.5100656],[35.9680573,47.5067029],[35.9614617,47.4899143],[35.9518992,47.4909875],[35.9509199,47.4883486],[35.950214,47.4814278],[35.9493877,47.4802207],[35.9459469,47.4759953],[35.9320742,47.4735608],[35.9244982,47.473913],[35.9248189,47.4682313],[35.933197,47.4626261],[35.9278847,47.4571076],[35.9196311,47.4538115],[35.9189061,47.4485574],[35.9013661,47.445274],[35.9015978,47.4356609],[35.8973566,47.4323447],[35.8880357,47.4341869],[35.8634695,47.4381844],[35.8409621,47.436836],[35.8361482,47.4434393],[35.8314202,47.4431633],[35.8271632,47.4469292],[35.8003101,47.4536394],[35.8028043,47.4681927],[35.7993754,47.4735194],[35.7906815,47.4808849],[35.7822566,47.4856684],[35.7451416,47.4868222],[35.7463914,47.4898851],[35.731603,47.4907137],[35.7185298,47.4947885],[35.7115039,47.505541],[35.6995239,47.506848],[35.6870634,47.5097609],[35.6704842,47.5022091],[35.654663,47.500962],[35.6346285,47.5004876],[35.6329032,47.502978],[35.6408407,47.5074928],[35.6369349,47.5109636],[35.6236289,47.5058463],[35.6211815,47.507665],[35.6165026,47.5062368],[35.6161569,47.5043081],[35.6131342,47.5043006],[35.592551,47.519323],[35.5672797,47.5284839],[35.5479326,47.52628],[35.539021,47.519038],[35.5152972,47.512315],[35.5094445,47.5069227],[35.4988711,47.5108643],[35.4869806,47.5111117],[35.4882243,47.5019664],[35.471171,47.4965074],[35.454356,47.4999972],[35.4456078,47.5039494],[35.43765,47.5035079],[35.4312031,47.5059976],[35.4226959,47.5058198],[35.4169025,47.5088946],[35.4143695,47.5164307],[35.3841959,47.5154398],[35.3760556,47.5202236],[35.376455,47.5246886],[35.3649692,47.5318681],[35.3659289,47.5351931],[35.3582509,47.5367048],[35.3482117,47.537082],[35.3415297,47.536044],[35.3347217,47.525284],[35.3264255,47.5168163],[35.3135036,47.512683],[35.2993806,47.510983],[35.2808956,47.503398],[35.2736536,47.493721],[35.2807956,47.472193],[35.2644226,47.473907],[35.2026416,47.445003],[35.1486616,47.445686],[35.1022275,47.4510382],[35.0624315,47.448694],[35.0461575,47.437757],[35.0288205,47.418144],[34.9686925,47.389233],[34.9354434,47.391632],[34.8837134,47.406118],[34.8633714,47.420884],[34.8747414,47.437558],[34.8741834,47.449528],[34.8599234,47.451254],[34.8252014,47.464803],[34.7923044,47.467747],[34.7491533,47.492601],[34.7089813,47.490582],[34.6894133,47.494893],[34.6801983,47.510731],[34.6420713,47.544419],[34.6283773,47.54583],[34.6180343,47.544491],[34.5990392,47.53467],[34.5862482,47.521809],[34.5445292,47.532707],[34.5331372,47.530459],[34.5006222,47.499673],[34.4358392,47.496913],[34.4052178,47.500758],[34.3869481,47.513875],[34.3741314,47.5071964],[34.3383711,47.467761],[34.3349111,47.447001],[34.2961021,47.428688],[34.2696791,47.439549],[34.199289,47.412104],[34.145724,47.424467],[34.118345,47.420566],[34.064873,47.424317],[34.0466769,47.417654],[34.0422339,47.410429],[33.9827319,47.230662],[33.9678599,47.211277],[33.9448439,47.197252],[33.9298141,47.1772162],[33.9031259,47.159977],[33.8499508,47.137794],[33.8407868,47.098524],[33.8023168,47.059017],[33.6976678,46.995131],[33.6956098,46.95542],[33.6881588,46.920449],[33.6784458,46.900926],[33.6568158,46.904678],[33.6338217,46.899514],[33.6340277,46.866257],[33.63746,46.8471761],[33.6202977,46.829034],[33.5634722,46.8182091],[33.4702657,46.820961],[33.4029376,46.773597],[33.3895301,46.7827267],[33.3771844,46.7763058],[33.3733726,46.776487],[33.3724696,46.776123],[33.3714076,46.777142],[33.3705596,46.776837],[33.3716106,46.775729],[33.3574455,46.7670354],[33.3588964,46.7640157],[33.3401572,46.7570422],[33.3133962,46.7514766],[33.2863056,46.749398],[33.2543812,46.752574],[33.239884,46.7635404],[33.1978698,46.7675023],[33.153349,46.7627951],[33.1414551,46.7593674],[33.1401905,46.756687],[33.1371655,46.755756],[33.1320618,46.7551279],[33.1040465,46.747501],[33.0904107,46.743645],[33.0819791,46.7380097],[33.0733123,46.7384001],[33.0621896,46.7322653],[33.0541727,46.7314321],[33.0484378,46.7376035],[33.0441725,46.7384806],[33.0433532,46.7372273],[33.04052,46.7292259],[33.0248939,46.7245733],[33.0195804,46.717745],[32.9910914,46.714538],[32.9798474,46.710469],[32.9542314,46.711542],[32.9427764,46.713303],[32.9333934,46.717207],[32.9285594,46.718374],[32.9233554,46.718326],[32.9053064,46.711285],[32.8917669,46.698237],[32.8910233,46.6932022],[32.8857311,46.68905],[32.8799589,46.6864742],[32.8750452,46.6868421],[32.87011,46.6825143],[32.8459334,46.6632763],[32.8336319,46.6549499],[32.8170258,46.6458912],[32.8035754,46.6408897],[32.7987104,46.6321159],[32.7843919,46.6280188],[32.7675244,46.6355784],[32.7511208,46.6303085],[32.7199882,46.6317615],[32.6844589,46.6212449],[32.6787383,46.6141517],[32.6890771,46.6064164],[32.6917769,46.6012578],[32.6665008,46.5825337],[32.5823333,46.5551263],[32.5538035,46.541271],[32.5375462,46.5380629],[32.5318552,46.5368679],[32.5206882,46.5403559],[32.5145852,46.5410099],[32.5089902,46.5400139],[32.5056952,46.5379629],[32.5002652,46.5334449],[32.4891291,46.5273829],[32.4647821,46.5080599],[32.4570671,46.5038109],[32.4483221,46.5028689],[32.4377211,46.5033619],[32.4326891,46.4947589],[32.4316761,46.4891869],[32.4282591,46.4853879],[32.4178411,46.4850379],[32.417638,46.4794622],[32.4013006,46.4719945],[32.3439201,46.4624858],[32.3020961,46.4677989],[32.2564424,46.4771961],[32.2369329,46.4802785],[32.2084966,46.4781547],[32.1646985,46.4895332],[32.126377,46.4986617],[32.0788785,46.4992337],[32.0463952,46.4889388],[31.999388,46.4880276],[31.9109057,46.5115562],[31.9049095,46.517962],[31.8987539,46.5186059],[31.8815618,46.5182979],[31.8649138,46.5176219],[31.8070708,46.5294639],[31.7569208,46.5479549],[31.6976507,46.5450339],[31.6628557,46.5364049],[31.6314977,46.5405179],[31.5816717,46.5372479],[31.5540826,46.5454649],[31.5305176,46.5576319],[31.5134156,46.5808289],[31.5112956,46.5766899]],[[37.750305,48.11872],[37.758733,48.118685],[37.756265,48.118689],[37.750305,48.11872]]],[[[31.5114791,46.349257],[31.5137113,46.3301786],[31.5147417,46.3212872],[31.5185179,46.3123958],[31.5233274,46.3018998],[31.5404905,46.2827451],[31.5621271,46.2669054],[31.5909589,46.2512384],[31.6373218,46.2342125],[31.6737534,46.2273536],[31.7010797,46.221792],[31.8603083,46.195154],[31.9043024,46.1882149],[31.9661349,46.1800629],[31.9865362,46.1783043],[32.0222124,46.1740427],[32.0798197,46.165498],[32.0827105,46.1663447],[32.0828546,46.1673698],[32.0778235,46.1669051],[32.0677548,46.1681586],[32.0590588,46.1702435],[32.0538818,46.1705301],[32.0502496,46.1725997],[32.046073,46.1728915],[32.0409807,46.1724429],[32.0403514,46.1735991],[32.0328561,46.1754894],[32.0071353,46.1768614],[31.9748887,46.1806034],[31.9145042,46.1883018],[31.849782,46.1997302],[31.7682214,46.2123192],[31.7110167,46.2220285],[31.6977437,46.2237408],[31.6771159,46.2291677],[31.664569,46.2302172],[31.6556264,46.2325719],[31.6517271,46.2357454],[31.6559317,46.239308],[31.6632269,46.2418017],[31.6742346,46.2450221],[31.6797495,46.2444429],[31.6808237,46.2488642],[31.6713823,46.2499326],[31.6458899,46.2447732],[31.6277803,46.2451878],[31.6098417,46.2466681],[31.5927674,46.2530201],[31.5768906,46.2605568],[31.5636705,46.268092],[31.5523352,46.2782367],[31.5418638,46.2900999],[31.5358566,46.3056349],[31.5328516,46.3193318],[31.5363707,46.3372901],[31.5357704,46.347421],[31.5360288,46.3563672],[31.5345483,46.3615353],[31.5351277,46.3679473],[31.5326921,46.369628],[31.5276814,46.3694727],[31.5215226,46.3669706],[31.516114,46.3607517],[31.5114791,46.349257]]],[[[36.373927,50.30029],[36.3780466,50.2937659],[36.3893847,50.27628],[36.4053581,50.2611313],[36.415918,50.2597248],[36.4183642,50.2568714],[36.4232993,50.2539903],[36.4439846,50.2483374],[36.4484309,50.2442774],[36.4439571,50.2400796],[36.4503072,50.2354798],[36.4620648,50.2341678],[36.4655829,50.2370277],[36.485493,50.2422065],[36.5053965,50.2386766],[36.5328009,50.2424247],[36.5691994,50.2445395],[36.559931,50.250796],[36.56865,50.257768],[36.574008,50.255268],[36.577894,50.258635],[36.575109,50.260672],[36.580365,50.262584],[36.5739434,50.2750449],[36.5926044,50.2757183],[36.5926628,50.278079],[36.589552,50.279346],[36.588033,50.281698],[36.5885739,50.2832694],[36.5856143,50.2858851],[36.582933,50.286282],[36.571219,50.285748],[36.560789,50.284236],[36.556128,50.281366],[36.523917,50.2864244],[36.5228153,50.2891452],[36.5251358,50.2907313],[36.5252859,50.2920598],[36.5260913,50.2924902],[36.5266074,50.2934738],[36.516363,50.2951651],[36.515658,50.295914],[36.512759,50.295767],[36.511151,50.295369],[36.500702,50.299248],[36.492712,50.30452],[36.489689,50.307838],[36.489951,50.309924],[36.487653,50.311665],[36.472289,50.313161],[36.440317,50.31098],[36.433698,50.330681],[36.425543,50.32827],[36.409299,50.312446],[36.400835,50.30717],[36.373927,50.30029]]],[[[36.5846418,50.2300206],[36.5873883,50.2277145],[36.5905641,50.227536],[36.5952204,50.2298559],[36.5988467,50.2298147],[36.594232,50.232573],[36.586776,50.2351401],[36.5846418,50.2300206]]],[[[36.720128,50.277444],[36.7271229,50.2677935],[36.7397726,50.2656587],[36.7554563,50.2602926],[36.7679356,50.2473661],[36.7892518,50.2458],[36.8085084,50.2480724],[36.8218329,50.2495541],[36.8234212,50.2499793],[36.8295583,50.2541643],[36.8331418,50.2564689],[36.8376054,50.2588282],[36.8377765,50.2613528],[36.8442995,50.2642334],[36.8542986,50.2663323],[36.8589338,50.2732857],[36.8477329,50.2846122],[36.8526253,50.2930574],[36.8776878,50.3002948],[36.896141,50.2928395],[36.9108185,50.2966763],[36.9156678,50.2978277],[36.9212469,50.2976632],[36.9223413,50.2941403],[36.9279417,50.2901511],[36.9354734,50.2914667],[36.9352803,50.2923167],[36.9365893,50.2926732],[36.9344647,50.2978139],[36.946095,50.2999385],[36.9453224,50.3024947],[36.9488415,50.3037899],[36.9539485,50.3011995],[36.9576398,50.3045128],[36.9739926,50.306923],[36.9920118,50.3098532],[36.9970741,50.3128521],[37.0050551,50.3135486],[37.0049296,50.3199945],[36.9941602,50.3219461],[36.9865117,50.328461],[36.9960448,50.3487418],[36.957421,50.34918],[36.937645,50.350224],[36.915294,50.346287],[36.882156,50.336552],[36.872241,50.335704],[36.8626278,50.3317863],[36.8519428,50.3275937],[36.8333579,50.3131381],[36.8284851,50.3128301],[36.8208034,50.3135665],[36.8039383,50.3098318],[36.8003327,50.3060231],[36.7683642,50.3018802],[36.7642754,50.2919664],[36.7607026,50.2899484],[36.7546605,50.2905174],[36.7479429,50.2882348],[36.7480321,50.287217],[36.750267,50.286309],[36.750696,50.283002],[36.749837,50.2809],[36.748778,50.2802072],[36.744987,50.2806835],[36.7448866,50.2818179],[36.7423255,50.2816186],[36.739936,50.282955],[36.728862,50.27733],[36.720128,50.277444]]],[[[36.9399748,50.2914301],[36.9407711,50.2896264],[36.9428887,50.2903012],[36.9432964,50.290548],[36.9445431,50.2915614],[36.94271,50.2919919],[36.9423359,50.2925869],[36.9414162,50.292406],[36.9416796,50.2918248],[36.9399748,50.2914301]]]]}},{"type":"Feature","id":"fase-3-controllo-ucraino-kursk","properties":{"id":"fase-3-controllo-ucraino-kursk","stato":"controllo-ucraino-in-russia","data":"2024-08-14","origineControllo":"non-applicabile","sourceId":"frontiera-ridigitalizzazione-deepstate-isw","note":"Perimetro consolidato e conservativo; escluse presenze isolate e massime direttrici rivendicate."},"geometry":{"type":"MultiPolygon","coordinates":[[[[35.0213993,51.2236095,0],[35.0229399,51.2202801,0],[35.0373499,51.2179749,0],[35.0394098,51.2039949,0],[35.0634424,51.2175448,0],[35.0612108,51.221953,0],[35.0749437,51.2321118,0],[35.1200048,51.2314131,0],[35.150303,51.2233506,0],[35.1394025,51.2174373,0],[35.1362268,51.2103131,0],[35.1434366,51.2029732,0],[35.1304323,51.1943675,0],[35.130681,51.173559,0],[35.134436,51.170816,0],[35.123252,51.165326,0],[35.1398679,51.1513437,0],[35.1353152,51.1483999,0],[35.1440031,51.1405924,0],[35.1417485,51.134687,0],[35.1743505,51.1218398,0],[35.1674593,51.1185528,0],[35.1637751,51.1082216,0],[35.1648701,51.1009307,0],[35.1696857,51.1031999,0],[35.1769683,51.0987167,0],[35.1739384,51.0873709,0],[35.1557815,51.0909234,0],[35.1480353,51.0828067,0],[35.1541882,51.0800502,0],[35.1636884,51.0833321,0],[35.1657512,51.0775156,0],[35.197249,51.0499195,0],[35.2006532,51.0524191,0],[35.2134399,51.0465092,0],[35.2484334,51.0645979,0],[35.2575782,51.0587778,0],[35.2658263,51.0630636,0],[35.2667305,51.0579317,0],[35.2733503,51.0580778,0],[35.2743488,51.0662075,0],[35.2946658,51.06952,0],[35.3043899,51.0786411,0],[35.3263362,51.0765925,0],[35.3538588,51.0996602,0],[35.3400851,51.1287842,0],[35.3138775,51.1456487,0],[35.3069785,51.1659328,0],[35.3349892,51.1864512,0],[35.3319389,51.1994104,0],[35.3147728,51.2189293,0],[35.2933138,51.2291448,0],[35.2680809,51.223445,0],[35.2351219,51.2427925,0],[35.2148659,51.2621319,0],[35.1825935,51.2758794,0],[35.1798523,51.2933818,0],[35.2054281,51.3257259,0],[35.1953878,51.3401825,0],[35.1561577,51.3325444,0],[35.1344383,51.3210689,0],[35.1051743,51.3173118,0],[35.0785668,51.3425179,0],[35.0571692,51.383046,0],[35.0267025,51.3848211,0],[34.9513956,51.4061808,0],[34.929908,51.4043482,0],[34.9130852,51.3698535,0],[34.9539406,51.3273959,0],[35.004409,51.3055085,0],[34.9958259,51.2889787,0],[35.0250084,51.2642802,0],[35.0191719,51.2520334,0],[34.9824364,51.24881,0],[34.979891,51.2355588,0],[34.9951246,51.2285251,0],[35.0098141,51.2317475,0],[35.0213993,51.2236095,0]]]]}}]}
