{"type":"Feature","geometry":{"type":"Polygon","coordinates":[[[35.0213993,51.2236095,0],[35.0229399,51.2202801,0],[35.02783,51.2195158,0],[35.0313467,51.2198266,0],[35.0373499,51.2179749,0],[35.0394098,51.2039949,0],[35.0545142,51.2109855,0],[35.0634424,51.2175448,0],[35.0612108,51.221953,0],[35.0686773,51.2298814,0],[35.0749437,51.2321118,0],[35.0848681,51.2302605,0],[35.1050924,51.2326527,0],[35.1175588,51.2298032,0],[35.1200048,51.2314131,0],[35.150303,51.2233506,0],[35.1502168,51.2212005,0],[35.1394025,51.2174373,0],[35.1362268,51.2103131,0],[35.1377718,51.2086733,0],[35.1436083,51.2058233,0],[35.1434366,51.2029732,0],[35.1304323,51.1943675,0],[35.1299612,51.1896341,0],[35.129329,51.182868,0],[35.130681,51.173559,0],[35.134436,51.170816,0],[35.123252,51.165326,0],[35.125065,51.161323,0],[35.130986,51.157045,0],[35.1398679,51.1513437,0],[35.1353152,51.1483999,0],[35.136644,51.1441282,0],[35.1440031,51.1405924,0],[35.1439057,51.1366703,0],[35.1417485,51.134687,0],[35.1541036,51.1312809,0],[35.1685196,51.1263453,0],[35.1743505,51.1218398,0],[35.1674593,51.1185528,0],[35.1644154,51.1133872,0],[35.1637751,51.1082216,0],[35.1665589,51.1055491,0],[35.1643458,51.105129,0],[35.1648701,51.1009307,0],[35.1684795,51.1006101,0],[35.1696857,51.1031999,0],[35.1769683,51.0987167,0],[35.1739384,51.0873709,0],[35.1557815,51.0909234,0],[35.1480353,51.0828067,0],[35.1504252,51.0826147,0],[35.1532509,51.0815482,0],[35.1541882,51.0800502,0],[35.1576077,51.0817182,0],[35.1594035,51.0808267,0],[35.1636884,51.0833321,0],[35.1665515,51.0806048,0],[35.1657512,51.0775156,0],[35.1679544,51.0756379,0],[35.1708441,51.0747307,0],[35.1730183,51.0716222,0],[35.1766849,51.0706908,0],[35.1780523,51.0674779,0],[35.1830241,51.0630783,0],[35.1824964,51.0619384,0],[35.1887104,51.057001,0],[35.1904161,51.0564513,0],[35.1903192,51.0537436,0],[35.197249,51.0499195,0],[35.2006532,51.0524191,0],[35.2037141,51.0512498,0],[35.2052729,51.048394,0],[35.2083265,51.0480722,0],[35.2095529,51.0467781,0],[35.2134399,51.0465092,0],[35.2210587,51.0506361,0],[35.2226202,51.0523017,0],[35.2264135,51.0526184,0],[35.2269621,51.0547625,0],[35.2423722,51.0604394,0],[35.243837,51.0636073,0],[35.2484334,51.0645979,0],[35.2536284,51.06158,0],[35.2559681,51.0621209,0],[35.2575457,51.0613394,0],[35.2575782,51.0587778,0],[35.2612944,51.0613928,0],[35.2658263,51.0630636,0],[35.2660309,51.061902,0],[35.2647335,51.0597694,0],[35.2667305,51.0579317,0],[35.2733503,51.0580778,0],[35.2728018,51.0595104,0],[35.2756866,51.059001,0],[35.2761348,51.0623787,0],[35.2738256,51.064428,0],[35.2743488,51.0662075,0],[35.2811036,51.0673662,0],[35.2856269,51.0672301,0],[35.2882195,51.0695477,0],[35.2946658,51.06952,0],[35.3004259,51.0722964,0],[35.3043899,51.0786411,0],[35.3101406,51.0795039,0],[35.3263362,51.0765925,0],[35.3538588,51.0996602,0],[35.3400851,51.1287842,0],[35.3138775,51.1456487,0],[35.3069785,51.1659328,0],[35.318149,51.1734876,0],[35.3349892,51.1864512,0],[35.3319389,51.1994104,0],[35.3147728,51.2189293,0],[35.2933138,51.2291448,0],[35.2680809,51.223445,0],[35.2351219,51.2427925,0],[35.2148659,51.2621319,0],[35.1825935,51.2758794,0],[35.1798523,51.2933818,0],[35.2054281,51.3257259,0],[35.1953878,51.3401825,0],[35.1561577,51.3325444,0],[35.1344383,51.3210689,0],[35.1051743,51.3173118,0],[35.0785668,51.3425179,0],[35.0571692,51.383046,0],[35.0267025,51.3848211,0],[34.9859251,51.3972979,0],[34.9513956,51.4061808,0],[34.929908,51.4043482,0],[34.9275055,51.395994,0],[34.9130852,51.3698535,0],[34.9539406,51.3273959,0],[35.004409,51.3055085,0],[34.9958259,51.2889787,0],[35.0250084,51.2642802,0],[35.0191719,51.2520334,0],[34.9824364,51.24881,0],[34.979891,51.2355588,0],[34.9827036,51.2336463,0],[34.9819968,51.23211,0],[34.9914498,51.2292186,0],[34.9951246,51.2285251,0],[35.0016811,51.2299057,0],[35.005507,51.2318185,0],[35.0098141,51.2317475,0],[35.0123187,51.2306553,0],[35.0133832,51.2282881,0],[35.0213993,51.2236095,0]]]},"properties":{"name":"Звільнено /// Liberated /// geoJSON.status.dismissed\n","styleUrl":"#poly-01579B-1200-77-nodesc","styleHash":"-420bc668","styleMapHash":{"normal":"#poly-01579B-1200-77-nodesc-normal","highlight":"#poly-01579B-1200-77-nodesc-highlight"},"stroke-opacity":1,"stroke":"#01579b","stroke-width":1.2,"fill-opacity":0.30196078431372547,"fill":"#01579b"}}